MOH_PRO_ID,Local Health Integration Network (LHIN),EN_NAME,ADDRESS_1,ADDRESS_2,COMMUNITY,POSTALCODE,Home Administrator,Licensee,Management Firm,Telephone,SERV_DET,Licensed Beds,Area Type,Approved Short Stay Beds,Residents’ Council,Family Council,Accreditation,Home Designated Under French Language Services Act,Additional Information
2872,Erie St. Clair,Afton Park Place Long Term Care Community,1200 Afton Drive, ,Sarnia,N7S6L6, MR JEFF HARVEY  ,S & R Nursing Homes Ltd.,,(519) 336-2362,NH for-profit,Home with approximately 128 beds,Urban,No,Yes,Yes,Yes,No,
2983,,"Albright Gardens Homes, Incorporated",5050 Hillside Drive, ,Lincoln,L0R1B2,,,,,CHFA,,Rural,,,,,,
2861,Hamilton Niagara Haldimand Brant (Hnhb),Alexander Place,329 Parkside Drive,Postal Office Box 50,Hamilton,L0R2H0, Ms Mary Wariara  ,Waterdown Long Term Care Centre Inc.,,(905) 689-2662,NH for-profit,Home with approximately 128 beds,Rural,Yes,Yes,Yes,Yes,No,
3041,North East,Algoma Manor Nursing Home,145 Dawson Street, ,Thessalon,P0R1L0, MS PAMELA FICOCIELLO  ,Algoma Manor Nursing Home,,(705) 842-2840,MHFA,Home with approximately 96 beds,Rural,Yes,Yes,Yes,Yes,No,
2647,North East,Algonquin Nursing Home,207 Turcotte Park Road, ,Mattawa,P0H, MS AMY MORRISON  ,Algonquin Nursing Home Of Mattawa,Hôpital De Mattawa Hospital,(705) 744-2202,NH for-profit,Home with approximately 73 beds,Rural,Yes,Yes,Yes,Yes,Yes,
M536,Mississauga Halton,Allendale,185 Ontario Street South, ,Milton,L9T2M4, MR SEAN WEYLIE  ,The Regional Municipality Of Halton,,(905) 825-6000,MHFA,Home with approximately 200 beds,Urban,No,Yes,Yes,Yes,No,
2692,Champlain,Almonte Country Haven,333 Country Street,Postal Office Box 250,Mississippi Mills,K0A1A0, MS CAROLYN DELLA-FORESTA  ,0760444 B.C. Ltd. As General Partner On Behalf Of Omni Health Care Limited Partnership,,(613) 256-3095,NH for-profit,Home with approximately 82 beds,Rural,No,Yes,Yes,Yes,No,
956,Central East,Altamont Care Community,92 Island Road, ,Toronto,M1C2P5, Ms Lorraine Gibson  ,Vigour Limited Partnership On Behalf Of Vigour General Partner Inc.,,(416) 284-4781,NH for-profit,Home with approximately 159 beds,Urban,Yes,Yes,Yes,Yes,No,
2786,Hamilton Niagara Haldimand Brant (Hnhb),Anson Place Care Centre,85 Main Street North, ,Hagersville,N0A1H0, Ms Danielle Kennedy  ,Rykka Care Centres Lp,,(905) 768-1641,NH for-profit,Home with approximately 61 beds,Rural,Yes,Yes,No,Yes,No,
2930,Hamilton Niagara Haldimand Brant (Hnhb),Arbour Creek Long-Term Care Centre,2717 King Street East, ,Hamilton,L8G1J3, MS LISA PALADINO  ,Rykka Care Centres Gp Inc.,,(905) 578-3431,NH for-profit,Home with approximately 129 beds,Urban,No,Yes,No,No,No,
2982,South East,Arbour Heights,564 Tanner Drive, ,Kingston,K7M0C3, MS CHRISTINE SELLERY  ,"Axr Operating (National) Lp, By Its General Partners",,(613) 544-1155,NH for-profit,Home with approximately 174 beds,Urban,No,Yes,Yes,Yes,No,
2756,North West,Atikokan General Hospital,120 Dorothy Street, ,Atikokan,P0T1C0, MR DOUG MOYNIHAN  ,Atikokan General Hospital,,(807) 597-4215,NH non-profit,Home with approximately 26 beds,Rural,No,No,Yes,Yes,No,
M502,North East,Au Chateau,100 Michaud Street, ,West Nipissing,P2B2Z4, MR JACQUES DUPUIS  ,The Board Of Management Of The District Of Nipissing West,,(705) 753-1550,MHFA,Home with approximately 162 beds,Urban,Yes,Yes,Yes,No,No,
2715,Central West,Avalon Retirement Centre,355 Broadway Avenue, ,Orangeville,L9W3Y3, MS KLARA HAMVAS  ,488491 Ontario Inc.,,(519) 941-5161,NH for-profit,Home with approximately 137 beds,Urban,Yes,Yes,Yes,Yes,No,
2626,South West,Babcock Community Care Centre,196 Wellington Street,Postal Office Box 190,Wardsville,N0L2N0, MR JOE BABCOCK  ,Babcock Community Care Centre Inc.,,(519) 693-4415,NH for-profit,Home with approximately 60 beds,Rural,No,Yes,Yes,Yes,No,
2263,Erie St. Clair,Banwell Gardens Care Centre,3000 Banwell Road, ,Windsor,N8N2M4, MS TANYA ADAMS (Interim)  ,Rykka Care Centres Lp,,(519) 735-3204,NH for-profit,Home with approximately 142 beds,Urban,Yes,Yes,Yes,Yes,No,
2830,Waterloo Wellington,Barnswallow Place Care Community,120 Barnswallow Drive, ,Elmira,N3B2Y9, MS CATHY HOLLAND  ,2063414 Ontario Limited As General Partner Of 2063414 Investment Lp,,(519) 669-5777,NH for-profit,Home with approximately 96 beds,Urban,No,Yes,No,Yes,No,
2657,North Simcoe Muskoka,Bay Haven Nursing Home,499 Hume Street, ,Collingwood,L9Y4H8, MR SCOTT STRANDHOLT  ,Bay Haven Nursing Home Incorporated,,(705) 445-6501,NH for-profit,Home with approximately 60 beds,Urban,No,Yes,No,No,No,
2895,Central East,Bay Ridges,900 Sandy Beach Road, ,Pickering,L1W1Z4, MS LESREEN THOMAS  ,Axr Operating (National) Lp,,(905) 837-8745,NH for-profit,Home with approximately 124 beds,Urban,No,Yes,Yes,Yes,No,
2772,Champlain,Bayfield Manor,100 Elvira Street,"Postal Office Bag 3000, P.O",Kemptville,K0G1J0, MR GERRY MILLER  ,"Cvh (No. 7) Lp By Its General Partners, Southbridge Health Care Gp Inc. And Southbridge Care Homes (A Limited Partnership, By Its General Partner, Southbridge Care Homes Inc.)",,(613) 258-7484,NH for-profit,Home with approximately 66 beds,Rural,No,Yes,Yes,No,No,
2581,Hamilton Niagara Haldimand Brant (Hnhb),BayWoods Place,330 Main Street East, ,Hamilton,L8N3T9, MS KAREN BAKKER-STEPHENS  ,Baywoods Place Operating Inc.,,(905) 523-7134,NH for-profit,Home with approximately 128 beds,Urban,No,Yes,Yes,Yes,No,
2890,Hamilton Niagara Haldimand Brant (Hnhb),Bella Senior Care Residences,8720 Willoughby Drive, ,Niagara Falls,L2G7X3, MS VERONICA SWARTZ  ,Bella Senior Care Residences Inc.,Extendicare (Canada) Inc.,(905) 295-2727,NH for-profit,Home with approximately 161 beds,Urban,No,Yes,Yes,Yes,No,
2985,,Belmont House,55 Belmont Street, ,Toronto,M5R1R1,,,,,CHFA,,Urban,,,,,,
2901,South East,Belmont Long Term Care Facility,250 Bridge Street West, ,Belleville,K8P5N3, MS DENISE MACKEY  ,Belcrest Nursing Homes Limited,,(613) 968-4434,NH for-profit,Home with approximately 128 beds,Urban,No,Yes,No,Yes,No,
M503,North East,Belvedere Heights,21 Belvedere Avenue, ,Parry Sound,P2A2A2, Ms Kami Johnson  ,Board Of Management Of The District Of Parry Sound West,,(705) 746-5871,MHFA,Home with approximately 101 beds,Urban,No,Yes,Yes,Yes,No,
M504,Central East,Bendale Acres,2920 Lawrence Avenue East, ,Toronto,M1P2T8, MS GINA FILICE  ,Toronto Long-term Care Homes And Services,,(416) 397-7000,MHFA,Home with approximately 302 beds,Urban,Yes,Yes,Yes,Yes,No,"Pavillon Omer Deslauriers, 37 beds, long term care services provided in French and English. "
2816,Mississauga Halton,Bennett Health Care Centre,1 Princess Anne Drive, ,Halton Hills,L7G2B8, MS SOO WONG  ,Bennett Centre Long Term Care At Bennett Village,,(905) 873-0115,NH non-profit,Home with approximately 66 beds,Urban,No,Yes,Yes,Yes,No,
2541,Erie St. Clair,Berkshire Care Centre,350 Dougall Avenue, ,Windsor,N9A4P4, MS ERIKA HOOKER  ,Rykka Care Centres Lp,,(519) 256-7868,NH for-profit,Home with approximately 231 beds,Urban,No,Yes,Yes,Yes,No,
2687,North West,Bethammi Nursing Home,63 Carrie Street, ,Thunder Bay,P7A4J2, Mr Randy Middleton  ,St. Joseph's Care Group,,(807) 768-4429,NH non-profit,Home with approximately 110 beds,Urban,No,Yes,Yes,Yes,No,
2986,,Bethany Lodge,23 Second Street, ,Markham,L3R2C2,,,,,CHFA,,Urban,,,,,,
2938,Hamilton Niagara Haldimand Brant (Hnhb),Billings Court Manor,3700 Billings Court, ,Burlington,L7N3N6, Ms Sharon Pustman  ,Maryban Holdings Ltd.,,(905) 333-4006,NH for-profit,Home with approximately 160 beds,Urban,No,Yes,Yes,Yes,No,
2620,North West,Birchwood Terrace,237 Lakeview Drive,R.R. 1,Kenora,P9N4J7, MS MARVA GRIFFITHS  ,Southbridge Capital,Extendicare Assist,(807) 468-8625,NH for-profit,Home with approximately 96 beds,Urban,Yes,Yes,Yes,Yes,No,
2641,Hamilton Niagara Haldimand Brant (Hnhb),Blackadar Continuing Care Centre,101 Creighton Road, ,Hamilton,L9H3B7, MS SHELLY DESGAGNE  ,Blackadar Continuing Care Centre Inc.,,(905) 627-5465,NH for-profit,Home with approximately 80 beds,Urban,No,Yes,No,No,No,
2695,Erie St. Clair,Blenheim Community Village,10 Mary Avenue, ,Chatham-Kent,N0P1A0, MS GWEN DALY  ,Revera Long Term Care Inc.,,(519) 676-8119,NH for-profit,Home with approximately 65 beds,Rural,No,Yes,Yes,Yes,No,
2697,Central,Bloomington Cove Care Community,13621 Ninth Line, ,Whitchurch-Stouffville,L4A3C8, MS JANET IWASZCZENKO  ,Specialty Care Inc.,,(905) 640-1310,NH for-profit,Home with approximately 112 beds,Urban,Yes,Yes,Yes,Yes,No,
2987,,Blue Water Rest Home,37792 Zurich-Hensall Road, ,Zurich,N0M2T0,,,,,CHFA,,Rural,,,,,,
2967,North Simcoe Muskoka,Bob Rumball Home for The Deaf,1 Royal Parkside Drive, ,Barrie,L4M0C4, MRS SHIRLEY CASSEL  ,The Ontario Mission Of The Deaf,,(705) 719-6700,NH non-profit,Home with approximately 64 beds,Urban,No,Yes,Yes,No,No,
M603,South West,Bobier Villa,1 Bobier Lane, ,Dutton,N0L1J0, MS TERRI BENWELL  ,The Corporation Of The County Of Elgin Municipal Homes,,(519) 762-2417,MHFA,Home with approximately 57 beds,Rural,Yes,Yes,Yes,No,No,
M506,Champlain,Bonnechere Manor,470 Albert Street, ,Renfrew,K7V4L5, MS SHELLEY SHEEDY  ,County Of Renfrew,,(613) 432-4873,MHFA,Home with approximately 180 beds,Urban,Yes,Yes,Yes,Yes,No,
2905,Central,Bradford Valley Care Community,2656 Line 6, ,Bradford West Gwillimbury,L3Z2A1, MS CATHY VANBEEK  ,Specialty Care - Bradford Inc.,,(905) 952-2260,NH for-profit,Home with approximately 246 beds,Urban,No,Yes,Yes,Yes,No,
2788,South West,Braemar Retirement Centre,719 Josephine Street North,"R.R. 1, Postal Office Box 1060",Wingham,N0G2W0, MR ARCHIE MacGOWAN  ,Macgowan Nursing Homes Ltd.,,(519) 357-3430,NH for-profit,Home with approximately 69 beds,Rural,No,Yes,No,Yes,No,
2678,Hamilton Niagara Haldimand Brant (Hnhb),Brierwood Gardens,425 Park Road North, ,Brantford,N3R7G5, MS BRENDA NADEAU  ,Revera Long Term Care Inc.,,(519) 759-1040,NH for-profit,Home with approximately 79 beds,Urban,No,Yes,Yes,Yes,No,
2684,South East,Broadview Nursing Centre,210 Brockville Street, ,Smiths Falls,K7A3Z4, MS ALAINA Kerr  ,Broadview Nursing Centre Limited,,(613) 283-1845,NH for-profit,Home with approximately 75 beds,Urban,No,Yes,No,No,No,
2301,Erie St. Clair,Brouillette Manor,11900 Brouillette Court, ,Windsor,N8N4X8, MS NANCY COMISKEY  ,1230839 Ontario Limited,,(519) 735-9810,NH for-profit,Home with approximately 60 beds,Urban,No,Yes,Yes,Yes,No,
M507,South West,Brucelea Haven Long Term Care Home - Corporation of the County of Bruce,41 McGivern Street West,Postal Office Box 1600,Walkerton,N0G2V0, Ms Catherine Stewart  ,Corporation Of The County Of Bruce,,(519) 881-1570,MHFA,Home with approximately 144 beds,Rural,No,Yes,No,No,No,
2857,Hamilton Niagara Haldimand Brant (Hnhb),Burloak,5959 New Street, ,Burlington,L7L6W5, Ms Sharon Bailey  ,Axr Operating (National) Lp,,(905) 639-6389,NH for-profit,Home with approximately 144 beds,Urban,No,Yes,Yes,Yes,No,
2686,Central East,Burnbrae Gardens Long Term Care Residence,320 6th Line East, ,Campbellford,K0L1L0, MS APRIL FAUX  ,0760444 B.C. Ltd. As General Partner On Behalf Of Omni Health Care Limited Partnership,,(705) 653-4100,NH for-profit,Home with approximately 43 beds,Rural,No,Yes,Yes,Yes,No,
2953,Central West,Burton Manor,5 Drive,Suite rritt,Brampton,L6Y5P3, MS NITIKA DHANJU  ,1245556 Ontario Inc.,Primacare Living Solutions Inc.,(905) 455-1601,NH for-profit,Home with approximately 128 beds,Urban,No,Yes,Yes,Yes,No,
2774,Hamilton Niagara Haldimand Brant (Hnhb),CAMA Woodlands Nursing Home,159 Panin Road, ,Burlington,L7P5A6, MS PAT CERVONI  ,The Central Canadian District Of The Christian And Missionary Alliance In Canada,,(905) 681-6441,NH non-profit,Home with approximately 134 beds,Urban,No,Yes,Yes,No,No,
2651,Waterloo Wellington,Cambridge Country Manor,3680 Speedsville Road,R.R. 1,Cambridge,N3H4R6, MS HEATHER RICHARDSON  ,Caressant-care Nursing And Retirement Homes Limited,Cambridge Memorial Hospital,(519) 650-0100,NH for-profit,Home with approximately 80 beds,Urban,No,Yes,Yes,Yes,No,
2472,Mississauga Halton,Camilla Care Community,2250 Hurontario Street, ,Mississauga,L5B1M8, Ms Justine Welburn  ,Vigour Limited Partnership On Behalf Of Vigour General Partner Inc.,,(905) 270-0411,NH for-profit,Home with approximately 237 beds,Urban,Yes,Yes,Yes,Yes,No,
M596,Central,Carefree Lodge,306 Finch Avenue East, ,Toronto,M2N4S5, MS LISA SOLONEN MACKAY  ,Toronto Long-term Care Homes And Services,,(416) 397-1500,MHFA,Home with approximately 127 beds,Urban,No,Yes,Yes,Yes,No,
2748,Waterloo Wellington,Caressant Care Arthur Nursing Home,215 Eliza Street,Postal Office Box 700,Arthur,N0G1A0, MS LINDSAY ROSS  ,Caressant-care Nursing And Retirement Homes Limited,,(519) 848-3795,NH for-profit,Home with approximately 80 beds,Rural,No,Yes,Yes,Yes,No,
1160,Champlain,Caressant Care Bourget,2279 Laval Road,Postal Office Box 99,Clarence-Rockland,K0A1E0, MS. PAMELA RICHMOND  ,Caressant-care Nursing And Retirement Homes Limited,,(613) 487-2331,NH for-profit,Home with approximately 60 beds,Rural,No,Yes,Yes,Yes,No,
2827,Champlain,Caressant Care Cobden,12 Wren Drive,Postal Office Box 430,Cobden,K0J1K0, MS ALEXIS ANDERSON  ,Caressant-care Nursing And Retirement Homes Limited,,(613) 646-2109,NH for-profit,Home with approximately 64 beds,Rural,No,Yes,No,Yes,No,
2826,South West,Caressant Care Courtland,4850 Highway,"Unit 59, Postal Office Box 279",Courtland,N0J1E0, MRS MICHELE HOUGH  ,Caressant-care Nursing And Retirement Homes Limited,,(519) 688-0710,NH for-profit,Home with approximately 55 beds,Rural,No,Yes,No,Yes,No,
2603,Waterloo Wellington,Caressant Care Fergus Nursing Home,450 Queen Street East, ,Fergus,N1M2Y7, MS Angel Roth  ,Caressant-care Nursing And Retirement Homes Limited,,(519) 843-2400,NH for-profit,Home with approximately 87 beds,Urban,No,Yes,Yes,Yes,No,
2595,Waterloo Wellington,Caressant Care Harriston,24 Louise Street,Postal Office Box 520,Minto,N0G1Z0, MS KAYLA KNIGHT  ,Caressant-care Nursing And Retirement Homes Limited,,(519) 338-3700,NH for-profit,Home with approximately 92 beds,Rural,No,Yes,Yes,Yes,No,
2701,Central East,Caressant Care Lindsay Nursing Home,240 Mary Street West, ,Kawartha Lakes,K9V5K5, MR BUTCH ASHCROFT  ,Caressant-care Nursing And Retirement Homes Limited,,(705) 324-1913,NH for-profit,Home with approximately 124 beds,Urban,No,Yes,No,Yes,No,
2664,South West,Caressant Care Listowel Nursing Home,710 Reserve Avenue South, ,Listowel,N4W2L1, MS LENORA BELLE  ,Caressant-care Nursing And Retirement Homes Limited,,(519) 291-1041,NH for-profit,Home with approximately 52 beds,Urban,Yes,Yes,No,Yes,No,
2718,South East,Caressant Care Marmora,58 Bursthall Street,Postal Office Box 429,Marmora,K0K2M0, MS CINDY BRANDT  ,Caressant-care Nursing And Retirement Homes Limited,,(613) 472-3130,NH for-profit,Home with approximately 84 beds,Rural,No,Yes,Yes,Yes,No,
2730,South West,Caressant Care on Bonnie Place,15 Bonnie Place, ,St. Thomas,N5R5T8, Ms Susan Hastings  ,Caressant-care Nursing And Retirement Homes Limited,,(519) 633-6493,NH for-profit,Home with approximately 116 beds,Urban,No,Yes,No,Yes,No,
2627,South West,Caressant Care on Mary Bucke,4 Mary Bucke Street, ,St. Thomas,N5R5J6, MS KORI AMON  ,Caressant-care Nursing And Retirement Homes Limited,,(519) 633-3164,NH for-profit,Home with approximately 60 beds,Urban,No,Yes,No,Yes,No,
2916,Central East,Caressant Care on McLaughlin Road,114 McLaughlin Road, ,Kawartha Lakes,K9V6L1, MS CHRISTINE PAULL  ,Caressant-care Nursing And Retirement Homes Limited,,(705) 324-0300,NH for-profit,Home with approximately 96 beds,Urban,No,Yes,Yes,Yes,No,
2636,South West,Caressant Care Woodstock Nursing Home,81 Fyfe Avenue, ,Woodstock,N4S8Y2, Ms Natalie Aikens  ,Caressant-care Nursing And Retirement Homes Limited,,(519) 539-6461,NH for-profit,Home with approximately 163 beds,Urban,Yes,Yes,Yes,Yes,No,
M508,Champlain,Carleton Lodge,55 Lodge Road,R.R. 2,Ottawa,K2C3H1, MS MARY ZION  ,City Of Ottawa,,(613) 580-2953,MHFA,Home with approximately 161 beds,Urban,No,Yes,Yes,Yes,No,
2420,Champlain,Carlingview Manor,2330 Carling Avenue, ,Ottawa,K2B7H1, MR MATT CARROLL  ,Carlingview Manor Operating Inc.,,(613) 820-9328,NH for-profit,Home with approximately 303 beds,Urban,No,Yes,Yes,Yes,No,
2683,South East,Carveth Care Centre,375 James Street, ,Gananoque,K7G2Z1, MR BRETT GIBSON  ,Carveth Nursing Home Limited,,(613) 382-4752,NH for-profit,Home with approximately 104 beds,Urban,No,Yes,Yes,Yes,No,
958,Central East,Case Manor Care Community,28 Boyd Street,Postal Office Box 670,Kawartha Lakes,K0M1A0, MS MONICA CARA  ,Specialty Care Case Manor Inc.,,(705) 738-3821,NH for-profit,Home with approximately 96 beds,Rural,No,Yes,Yes,Yes,No,
M509,North East,Cassellholme,400 Olive Street, ,North Bay,P1B6J4, MR JAMIE LOWERY  ,Board Of Management Of The District Of Nipissing East,,(705) 474-4250,MHFA,Home with approximately 240 beds,Urban,Yes,Yes,Yes,Yes,No,
M510,Toronto Central,Castleview Wychwood Towers,351 Christie Street, ,Toronto,M6G3C3, Mr Tim Burns  ,Toronto Long-term Care Homes And Services,,(416) 392-5700,MHFA,Home with approximately 456 beds,Urban,Yes,Yes,Yes,Yes,No,
2912,Mississauga Halton,Cawthra Gardens,590 Lolita Gardens, ,Mississauga,L5A4N8, MR DAVID MARRIOTT  ,Delcare Ltc Inc.,Chartwell Seniors Housing Reit,(905) 306-9984,NH for-profit,Home with approximately 192 beds,Urban,No,Yes,Yes,Yes,No,
2769,Central,Cedarvale Lodge Retirement and Care Community,121 Morton Avenue, ,Georgina,L4P2M5, MS ANNA URBANOWICZ  ,Specialty Care Inc.,,(905) 476-2656,NH for-profit,Home with approximately 60 beds,Urban,No,Yes,Yes,Yes,No,
2591,Toronto Central,Cedarvale Terrace,429 Walmer Road, ,Toronto,M5P2X9, MS ADELE LOPES  ,Cedarvale Terrace Ltc Inc. As General Partner Of Cedarvale Terrace Ltc Limited Partnership,,(416) 967-6949,NH for-profit,Home with approximately 218 beds,Urban,Yes,Yes,Yes,Yes,No,
7093,North East,Cedarwood Lodge,860 Great Northern Road, ,Sault Ste. Marie,P6B0B5, MS JANE MASON  ,Autumnwood Mature Lifestyle Communities Inc.,Universalcare Canada Inc.,(705) 450-5264,NH for-profit,Home with approximately 50 beds,Urban,No,Yes,Yes,No,No,
2768,Hamilton Niagara Haldimand Brant (Hnhb),Cedarwood Village,500 Queensway West, ,Simcoe,N3Y4R4, MS SUSAN HASTINGS  ,Maplewood Nursing Home Limited,,(519) 426-8305,NH for-profit,Home with approximately 91 beds,Urban,Yes,Yes,Yes,Yes,No,
2903,Central East,Centennial Place Long-Term Care Home,2 Centennial Lane North, ,Millbrook,M5J2G2, MS DEBBIE MADDISON  ,Centennial Place Millbrook Inc.,,(705) 932-4464,NH for-profit,Home with approximately 128 beds,Urban,No,Yes,No,Yes,No,
M511,Champlain,Centre d'Accueil Champlain,275 Perrier Avenue, ,Ottawa,K1L5C6, MS JACQUELINE ROY  ,City Of Ottawa,,(613) 746-3543,MHFA,Home with approximately 160 beds,Urban,No,Yes,Yes,Yes,No,
2988,,Centre d'Accueil Roger Seguin,435 Lemay Street, ,Clarence Creek,K0A1N0,,,,,CHFA,,Rural,,,,,,
2630,Central,Chartwell Aurora Long Term Care Residence,32 Mill Street, ,Aurora,L4G2R9, MR GREG BOUDREAU  ,Chartwell Master Care Lp,,(905) 727-1939,NH for-profit,Home with approximately 235 beds,Urban,Yes,Yes,Yes,Yes,No,
2740,South West,Chartwell Aylmer Long Term Care Residence,465 Talbot Street West, ,Aylmer,N5H1K8, MS LORI DEMAITER  ,Chartwell Master Care Lp,,(519) 773-3423,NH for-profit,Home with approximately 64 beds,Urban,No,Yes,No,Yes,No,
2658,Central East,Chartwell Ballycliffe Long Term Care Residence,70 Station Street, ,Ajax,L1S1R9, MS DUNA MCKAY  ,Chartwell Master Care Lp,,(905) 683-7321,NH for-profit,Home with approximately 100 beds,Urban,No,Yes,Yes,Yes,No,
2613,Central East,Chartwell Bon Air Long Term Care Residence,131 Laidlaw Street South, ,Cannington,L0E1E0, Ms Angela Rodrigues  ,"Dtoc Ii Long Term Care Lp, By Its General Partner, Dtoc Ii Long Term Care Mgp (A General Partnership) By Its Partners, Dtoc Ii Long Term Care Gp Inc. And Arch Venture Holdings Inc.",Responsive Health Management Inc.,(705) 432-2385,NH for-profit,Home with approximately 57 beds,Rural,Yes,Yes,Yes,Yes,No,
2900,Hamilton Niagara Haldimand Brant (Hnhb),Chartwell Brant Centre Long Term Care Residence,1182 Northshore Boulevard East, ,Burlington,L7S1C5, MS CARLA ROCHE  ,Regency Ltc Operating Limited Partnership On Behalf Of Regency Operator Gp Inc. As General Partner,,(905) 639-2848,NH for-profit,Home with approximately 175 beds,Urban,No,Yes,Yes,Yes,No,
925,Champlain,Chartwell Champlain Long Term Care Residence,428 Front Road West, ,L'Orignal,K0B1K0, MR DANY ROUSSEL  ,"Dtoc Ii Long Term Care Lp, By Its General Partner, Dtoc Ii Long Term Care Mgp (A General Partnership) By Its Partners, Dtoc Ii Long Term Care Gp Inc. And Arch Venture Holdings Inc.",Responsive Health Management Inc.,(613) 675-4617,NH for-profit,Home with approximately 60 beds,Rural,No,Yes,Yes,Yes,Yes,
2471,Waterloo Wellington,Chartwell Elmira Long Term Care Residence,11 Herbert Street, ,Elmira,N3B2B8, MS PENNY SILVA  ,Chartwell Master Care Lp,,(519) 669-2921,NH for-profit,Home with approximately 48 beds,Urban,No,Yes,No,Yes,No,
2556,Central,Chartwell Gibson Long Term Care Residence,1925 Steeles Avenue East,Suite eles,Toronto,M2H2H3, MS AUTUMN TRUMBULL  ,Chartwell Master Care Lp,,(416) 493-4666,NH for-profit,Home with approximately 202 beds,Urban,No,Yes,No,Yes,No,
2680,Champlain,Chartwell Lancaster Long Term Care Residence,105 Military Road North,Postal Office Box 429,Lancaster,K0C1N0, MS NICOLE GURNSEY  ,"Dtoc Ii Long Term Care Lp, By Its General Partner, Dtoc Ii Long Term Care Mgp (A General Partnership) By Its Partners, Dtoc Ii Long Term Care Gp Inc. And Arch Venture Holdings Inc.",Responsive Health Management Inc.,(613) 347-3016,NH for-profit,Home with approximately 60 beds,Rural,No,Yes,Yes,Yes,Yes,
2919,South West,Chartwell London Long Term Care Residence,2000 Blackwater Road, ,London,N5X4K6, MS LINDA ADAMSON  ,Chartwell Master Care Lp,,(519) 434-2727,NH for-profit,Home with approximately 95 beds,Urban,No,Yes,No,Yes,No,
2618,Hamilton Niagara Haldimand Brant (Hnhb),Chartwell Niagara Long Term Care Residence,120 Wellington Street,Postal Office Box 985,Niagara-On-The-Lake,L0S1J0, Mr Chris Poos  ,"Dtoc Ii Long Term Care Lp, By Its General Partner, Dtoc Ii Long Term Care Mgp (A General Partnership) By Its Partners, Dtoc Ii Long Term Care Gp Inc. And Arch Venture Holdings Inc.",Responsive Health Management Inc.,(905) 468-2111,NH for-profit,Home with approximately 124 beds,Rural,No,Yes,Yes,Yes,No,
2632,South West,Chartwell Parkhill Long Term Care Residence,250 Tain Street,Postal Office Box 129,Parkhill,N0M2K0, Ms Lisa Smith  ,Chartwell Master Care Lp,,(519) 294-6342,NH for-profit,Home with approximately 59 beds,Rural,No,Yes,No,Yes,No,
2808,Central West,Chartwell Pine Grove Long Term Care Residence,8403 Islington Avenue, ,Vaughan,L4L1X3, MS CHRISTINA MATTA  ,Chartwell Master Care Lp,,(905) 850-3605,NH for-profit,Home with approximately 101 beds,Urban,Yes,Yes,Yes,Yes,No,
2939,Erie St. Clair,Chartwell Royal Oak Long Term Care Residence,1750 Division Road North, ,Kingsville,N9Y4G7, MS NICOLE ROSS  ,Chartwell Master Care Lp,,(519) 733-9303,NH for-profit,Home with approximately 160 beds,Urban,No,Yes,Yes,Yes,No,
2899,Central East,Chartwell Trilogy Long Term Care Residence,340 McCowan Road, ,Toronto,M1J3P4, MS SHOMA MARAJ  ,Trilogy Ltc Inc.,,(416) 443-1074,NH for-profit,Home with approximately 197 beds,Urban,Yes,Yes,Yes,Yes,No,
2908,Mississauga Halton,Chartwell Waterford Long Term Care Residence,2140 Baronwood Drive, ,Oakville,L6M4V6, MS MICHELE MACKENZIE  ,Regency Ltc Operating Limited Partnership On Behalf Of Regency Operator Gp Inc. As General Partner,,(905) 827-2405,NH for-profit,Home with approximately 168 beds,Urban,No,Yes,Yes,Yes,No,
2833,Mississauga Halton,Chartwell Wenleigh Long Term Care Residence,2065 Leanne Boulevard, ,Mississauga,L5K2L6, MS CECILE CARROL  ,Regency Ltc Operating Limited Partnership On Behalf Of Regency Operator Gp Inc. As General Partner,,(905) 822-4663,NH for-profit,Home with approximately 161 beds,Urban,No,Yes,Yes,Yes,No,
2943,Mississauga Halton,Chartwell Westbury Long Term Care Residence,495 The West Mall, ,Toronto,M9C5S3, Ms Sara Rickards  ,Regency Ltc Operating Limited Partnership On Behalf Of Regency Operator Gp Inc. As General Partner,,(416) 622-7094,NH for-profit,Home with approximately 187 beds,Urban,No,Yes,Yes,Yes,No,
2880,Waterloo Wellington,Chartwell Westmount Long Term Care Residence,200 David Bergey Drive, ,Kitchener,N2E3Y4, MS DAWNA COURTNEY  ,Regency Ltc Operating Limited Partnership On Behalf Of Regency Operator Gp Inc. As General Partner,,(519) 570-2115,NH for-profit,Home with approximately 161 beds,Urban,No,Yes,Yes,Yes,No,
2583,Toronto Central,Chartwell White Eagle Long Term Care Residence,138 Dowling Avenue, ,Toronto,M6K3A6, Ms Adyanes Lachowski  ,Chartwell Master Care Lp,,(416) 533-7935,NH for-profit,Home with approximately 57 beds,Urban,Yes,Yes,Yes,Yes,No,
2921,Hamilton Niagara Haldimand Brant (Hnhb),Chartwell Willowgrove Long Term Care Residence,1217 Old Mohawk Road, ,Hamilton,L9K1P6, MS KATE MACDONALD  ,Regency Ltc Operating Limited Partnership On Behalf Of Regency Operator Gp Inc. As General Partner,,(905) 304-6781,NH for-profit,Home with approximately 169 beds,Urban,No,Yes,Yes,Yes,No,
2888,Central,Chartwell Woodhaven Long Term Care Residence,380 Church Street, ,Markham,L6B1E1, Mr Andre Dwyer  ,Regency Ltc Operating Limited Partnership On Behalf Of Regency Operator Gp Inc. As General Partner,,(905) 472-3320,NH for-profit,Home with approximately 192 beds,Urban,Yes,No,Yes,Yes,No,
2885,Central East,Chartwell Wynfield Long Term Care Residence,451 Woodmount Drive, ,Hampton,L1G8E3, Ms Debbie McCance  ,Regency Ltc Operating Limited Partnership On Behalf Of Regency Operator Gp Inc. As General Partner,,(905) 571-0065,NH for-profit,Home with approximately 172 beds,Urban,No,Yes,Yes,Yes,No,
2712,Erie St. Clair,Chateau Park Long Term Care Home,2990 Riverside Drive West,Unit B,Windsor,N9C1A2, MS ANNEMARIE MELOCHE  ,"Dtoc Long Term Care Lp, By Its General Partner, Dtoc Long Term Care Mgp (A General Partnership) By Its Partners, Dtoc Long Term Care Gp Inc. And Arch Venture Holdings Inc.",Universalcare Canada Inc.,(519) 254-4341,NH for-profit,Home with approximately 59 beds,Urban,No,Yes,Yes,Yes,No,
2655,South West,Chelsey Park,310 Oxford Street West, ,London,N6H4N6, MRS SUZI HOLSTER  ,"Cvh (No. 3) Lp By Its General Partners, Southbridge Health Care Gp Inc. And Southbridge Care Homes (A Limited Partnership, By Its General Partner, Southbridge Care Homes Inc.)","Diversicare Canada Management Services Co., Inc.",(519) 432-1855,NH for-profit,Home with approximately 247 beds,Urban,Yes,Yes,Yes,Yes,No,
922,Central,Cheltenham Care Community,5935 Bathurst Street, ,Toronto,M2R1Y8, MS JENNIFER GILLINGHAM  ,Vigour Limited Partnership On Behalf Of Vigour General Partner Inc.,,(416) 223-4050,NH for-profit,Home with approximately 170 beds,Urban,Yes,Yes,Yes,Yes,No,
2970,Toronto Central,Chester Village,3555 Danforth Avenue, ,Toronto,M1L1E3, MS CYNTHIA MARINELLI  ,Broadview Foundation,,(416) 466-2173,NH non-profit,Home with approximately 203 beds,Urban,No,Yes,Yes,Yes,No,
2721,Hamilton Niagara Haldimand Brant (Hnhb),Clarion Nursing Home,337 Highway,Unit 8,Hamilton,L8G1E7, MR MICHAEL JANJIC  ,Clarion Nursing Homes Limited,,(905) 664-2281,NH for-profit,Home with approximately 100 beds,Urban,No,Yes,Yes,Yes,No,
2696,North Simcoe Muskoka,Coleman Care Centre,140 Cundles Road West, ,Barrie,L4N9X8, MS MICHELLE UPRICHARD  ,Oakwood Retirement Communities Inc.,,(705) 726-8691,NH for-profit,Home with approximately 112 beds,Urban,No,Yes,Yes,Yes,No,
2781,North Simcoe Muskoka,Collingwood Nursing Home,250 Campbell Street, ,Collingwood,L9Y4J9, MR PETER ZOBER  ,Collingwood Nursing Home Limited,,(705) 445-3991,NH for-profit,Home with approximately 60 beds,Urban,No,Yes,Yes,No,No,
2856,Waterloo Wellington,Columbia Forest,650 Mountain Maple Avenue, ,Waterloo,N2V2P7, Ms Lilibeth Medina  ,Revera Long Term Care Inc.,,(519) 884-4480,NH for-profit,Home with approximately 156 beds,Urban,No,Yes,Yes,Yes,No,
2124,Mississauga Halton,Cooksville Care Centre,55 The Queensway West, ,Mississauga,L5B1B5, Ms Nicole Fisher  ,Rykka Care Centres Lp,,(905) 270-0170,NH for-profit,Home with approximately 192 beds,Urban,Yes,Yes,Yes,Yes,No,
2937,Toronto Central,Copernicus Lodge,66 Roncesvalles Avenue, ,Toronto,M6R3A7, MS ROXANNE ADAMS  ,Copernicus Lodge,,(416) 536-7122,NH non-profit,Home with approximately 228 beds,Urban,Yes,Yes,Yes,No,No,
1115,Erie St. Clair,Copper Terrace,91 Tecumseh Road, ,Chatham-Kent,N7M1B3, MS SHANNON SNELGROVE  ,Copper Terrace Limited,Apans Inc.,(519) 354-5442,NH for-profit,Home with approximately 138 beds,Urban,Yes,Yes,Yes,Yes,No,
1027,South West,Country Lane Long Term Care Residence,317079 Highway 6,"R. R. 3, 10",Chatsworth,N0H1G0, Ms Christi Broderick  ,Grosvenor Health Care Partnership (No. 3),Revera Long Term Care Inc.,(519) 794-2244,NH for-profit,Home with approximately 34 beds,Rural,No,Yes,Yes,Yes,No,
907,South West,Country Terrace,10072 Oxbow Drive,R.R. 3,Komoka,N0L1R0, MS KAREN DANN  ,Omni Healthcare (Ct) Gpco Ltd. As General Partner Of Omni Healthcare (Country Terrace) Limited Partnershippartner,,(519) 657-2955,NH for-profit,Home with approximately 120 beds,Rural,Yes,Yes,No,Yes,No,
2576,Erie St. Clair,Country Village Homes - Woodslee,440 County Road 8,R.R. 2,South Woodslee,N0R1V0, MS JANET CARRIERE  ,"Cvh (No. 5) Lp By Its General Partners, Southbridge Health Care Gp Inc. And Southbridge Care Homes (A Limited Partnership, By Its General Partner, Southbridge Care Homes Inc.)",Kanata Living Inc.,(519) 839-4812,NH for-profit,Home with approximately 104 beds,Rural,No,Yes,Yes,Yes,No,
2585,North East,Northview Nursing Home,77 River Road,Postal Office Box 1139,Englehart,P0J1H0, MS TRACEY GEMMILL  ,675412 Ontario Inc.,,(705) 544-8191,NH for-profit,Home with approximately 48 beds,Rural,Yes,Yes,No,Yes,No,
M607,North West,Northwood Lodge,51 Highway 105,Postal Office Box 420,Red Lake,P0V2M0, MS KANDICE HENRY  ,Board Of Management Of The District Of Kenora,Unity Health Toronto,(807) 727-2323,MHFA,Home with approximately 32 beds,Rural,No,Yes,Yes,No,No,"Name: Dale Clement,
Position: VP Clinical Programs & Site Lead St. Joseph's Health Centre
30 The Queensway
Toronto ON M6R 1B5
Phone: 416-530-6657
E-mail: dale.clement@unityhealth.to"
M624,Hamilton Niagara Haldimand Brant (Hnhb),Norview Lodge,44 Rob Blake Way, ,Simcoe,N3Y0E3, MR BILL NOLAN  ,The Corporation Of Norfolk County,,(519) 426-0902,MHFA,Home with approximately 180 beds,Urban,Yes,Yes,Yes,Yes,No,
2201,Toronto Central,Norwood Nursing Home,122 Tyndall Avenue, ,Toronto,M6K2E2, Ms Martha Acuna-Galeano  ,Norwood Nursing Home Limited,,(416) 535-3011,NH for-profit,Home with approximately 60 beds,Urban,No,Yes,Yes,Yes,No,
2593,North Simcoe Muskoka,Oak Terrace,291 Mississaga Street West, ,Orillia,L3V3B9, MS ANNETTE SCHNEIDER  ,Revera Long Term Care Inc.,,(705) 325-2289,NH for-profit,Home with approximately 94 beds,Urban,No,Yes,Yes,Yes,No,
2661,Hamilton Niagara Haldimand Brant (Hnhb),Oakwood Park Lodge,6747 Oakwood Drive, ,Niagara Falls,L2G0J3, MR STEPHEN MORAN  ,Maryban Holdings Ltd.,,(905) 356-8732,NH for-profit,Home with approximately 153 beds,Urban,Yes,Yes,No,Yes,No,
3042,South West,Oneida Nation of the Thames Long-Term Care Home (Tsi' Nu: yoyantle' Na' Tuhuwatisni),2229 Elm Avenue,R.R. 2,Southwold,N0L2G0, MS MAUREEN KELLY  ,Oneida Nation Of The Thames,,(519) 652-8977,NH non-profit,Home with approximately 64 beds,Rural,No,Yes,Yes,No,No,
2477,Hamilton Niagara Haldimand Brant (Hnhb),Orchard Terrace Care Centre,199 Glover Road, ,Hamilton,L8E5J2, MS CINDY SHEPPARD  ,Rykka Care Centres Lp,,(905) 643-1795,NH for-profit,Home with approximately 45 beds,Urban,No,Yes,Yes,Yes,No,
2693,Central East,Orchard Villa,1955 Valley Farm Road, ,Pickering,L1V3R6, MR JASON GAY  ,"Cvh (No. 6) Lp By Its General Partners, Southbridge Health Care Gp Inc. And Southbridge Care Homes (A Limited Partnership, By Its General Partner, Southbridge Care Homes Inc.)",,(905) 831-2522,NH for-profit,Home with approximately 233 beds,Urban,No,Yes,Yes,Yes,No,
2584,North Simcoe Muskoka,Owen Hill Care Community,130 Owen Street, ,Barrie,L4M3H7, MS LENKA FOUSEK  ,2063414 Ontario Limited As General Partner Of 2063414 Investment Lp,,(705) 726-8621,NH for-profit,Home with approximately 57 beds,Urban,No,Yes,Yes,Yes,No,
1131,Champlain,Parisien Manor,439 Second Street East, ,Cornwall,K6H1Z2, MS JESSICA VALADE  ,"Cvh (No. 6) Lp By Its General Partners, Southbridge Health Care Gp Inc. And Southbridge Care Homes (A Limited Partnership, By Its General Partner, Southbridge Care Homes Inc.)",,(613) 933-2592,NH for-profit,Home with approximately 65 beds,Urban,No,Yes,No,Yes,No,
2779,Hamilton Niagara Haldimand Brant (Hnhb),Park Lane Terrace,295 Grand River Street North, ,Brant,N3L2N9, SANDY HALL  ,Park Lane Terrace Limited,Apans Health Services,(519) 442-2753,NH for-profit,Home with approximately 132 beds,Urban,No,Yes,Yes,Yes,No,
2968,Central,Parkview Home Long-Term Care,123 Weldon Road, ,Whitchurch-Stouffville,L4A0G8, MS KAREN GAYMAN  ,The Mennonite Home Association As York County,,(905) 640-1911,NH non-profit,Home with approximately 128 beds,Urban,No,Yes,Yes,Yes,No,
1053,South West,Parkview Manor Health Care Centre,98 - 3rd Street South,"Postal Office Box 298, East",Chesley,N0G1L0, Ms Christi Broderick  ,Grosvenor Health Care Partnership (No. 3),Extendicare (Canada) Inc.,(519) 363-2416,NH for-profit,Home with approximately 34 beds,Rural,No,Yes,Yes,Yes,No,
2700,Hamilton Niagara Haldimand Brant (Hnhb),Parkview Nursing Centre,545 King Street West, ,Hamilton,L8P1C1, MS LISA HISCOTT  ,The Parkview Health Care Partnership On Behalf Of 593405 Ontario Limited As General Partner,Metcap Living Management Inc./Gestion Residentielle Metcap Inc.,(905) 525-5903,NH for-profit,Home with approximately 126 beds,Urban,No,Yes,Yes,Yes,No,
2952,Waterloo Wellington,Parkwood Mennonite Home,726 New Hampshire Street, ,Waterloo,N2K4M1, Ms Christine Nomandeau  ,Parkwood Mennonite Home Inc.,,(519) 885-4810,NH non-profit,Home with approximately 96 beds,Urban,No,Yes,Yes,Yes,No,
M562,Central West,Peel Manor,525 Main Street North, ,Brampton,L6X1N9, Ms. Liezle Trinidad  ,The Regional Municipality Of Peel (See Owner No. 416),,(905) 453-4140,MHFA,Home with approximately 177 beds,Urban,No,Yes,Yes,Yes,No,
2990,,peopleCare A.R. Goudie Kitchener,369 Frederick Street, ,Kitchener,N2H2P1,,,,,CHFA,,Urban,,,,,,
2606,Waterloo Wellington,peopleCare Hilltop Manor Cambridge,42 Elliott Street, ,Cambridge,N1R2J2, MR MIKE DICKIN  ,Peoplecare Communities Inc.,,(519) 621-3067,NH for-profit,Home with approximately 185 beds,Urban,No,Yes,Yes,Yes,No,
2980,South West,peopleCare Oakcrossing London,1242 Oakcrossing Road, ,London,N6H0G2, MR JEREMY ZINGER  ,Peoplecare Communities Inc.,,(519) 641-0023,NH for-profit,Home with approximately 160 beds,Urban,No,Yes,Yes,Yes,No,
2614,South West,peopleCare Tavistock,28 William Street North,Postal Office Box 460,Tavistock,N0B2R0, MS DEBORAH WETTLAUFER  ,Peoplecare Communities Inc.,,(519) 655-2031,NH for-profit,Home with approximately 100 beds,Rural,Yes,Yes,No,Yes,No,
962,South East,Perth Community Care Centre,101 Christie Lake Road,R. R. 4,Perth,K7H3C6, MS JENNIFER CUMMINS  ,"Arch Long Term Care Lp By Its General Partner, Arch Long Term Care Mgp, By Its Partners, Arch Long Term Care Gp Inc. And Arch Capital Management Corporation",Universalcare Canada Inc.,(613) 267-2506,NH for-profit,Home with approximately 121 beds,Urban,No,Yes,Yes,Yes,No,
M609,Champlain,Peter D. Clark Centre,9 Meridian Place, ,Ottawa,K2G6P8, MS SHELLEY KUIACK  ,City Of Ottawa,,(613) 274-2671,MHFA,Home with approximately 216 beds,Urban,No,Yes,Yes,Yes,No,
2796,South East,Pine Meadow Nursing Home,124 Lloyd Street,Postal Office Box 100,Northbrook,K0H2G0, MS MARGARET PALIMAKA  ,Land O'lakes Community Services,Extendicare (Canada) Inc.,(613) 336-9120,NH non-profit,Home with approximately 60 beds,Rural,Yes,Yes,Yes,Yes,No,
2750,Hamilton Niagara Haldimand Brant (Hnhb),Pine Villa Nursing Home,490 Hamilton Regional Road 8,Unit 8,Hamilton,L8G1G6, MS LISA PALADINO  ,Rykka Care Centres I I Gp Inc,,(905) 573-4940,NH for-profit,Home with approximately 41 beds,Urban,No,Yes,No,No,No,
M563,North West,Pinecrest (Kenora),1220 Valley Drive, ,Kenora,P9N2W7, MR KEVIN QUEEN  ,Board Of Management Of The District Of Kenora,,(807) 468-3165,MHFA,Home with approximately 116 beds,Urban,Yes,Yes,Yes,No,No,
2797,Champlain,Pinecrest (Plantagenet),101 Parent Street,Postal Office Box 250,Plantagenet,K0B1L0, MS DIANE PELLETIER  ,"Cvh (No. 4) Lp By Its General Partners, Southbridge Health Care Gp Inc. And Southbridge Care Homes (A Limited Partnership, By Its General Partner, Southbridge Care Homes Inc.)",,(613) 673-4835,NH for-profit,Home with approximately 60 beds,Rural,No,Yes,Yes,No,No,
2600,South West,Pinecrest Manor,399 Bob Street,Postal Office Box 220,Lucknow,N0G2H0, MS LISA STROEDER  ,Revera Long Term Care Inc.,,(519) 528-2820,NH for-profit,Home with approximately 61 beds,Rural,No,Yes,Yes,Yes,No,
2731,Central East,Pinecrest Nursing Home (Bobcaygeon),3418 Kawartha Lakes County Road 36,R.R. 2,Kawartha Lakes,K0M1A0, MS MARY CARR  ,Medlaw Corporation Limited,,(705) 738-2366,NH for-profit,Home with approximately 65 beds,Rural,No,Yes,Yes,No,No,
2805,Waterloo Wellington,Pinehaven Nursing Home,229 Lexington Road, ,Waterloo,N2K2E1, M. BRYCE MCBAIN  ,Schlegel Villages Inc.,,(519) 885-0255,NH for-profit,Home with approximately 84 beds,Urban,No,Yes,Yes,Yes,No,
M566,North East,Pioneer Manor,960 Notre Dame Avenue, ,Greater Sudbury,P3A2T4, AARON ARCHIBALD  ,The City Of Greater Sudbury,,(705) 566-4270,MHFA,Home with approximately 433 beds,Urban,No,Yes,Yes,Yes,No,
M599,North West,Pioneer Ridge,750 Tungsten Street, ,Thunder Bay,P7A5C2, LEE MESIC  ,The Corporation Of The City Of Thunder Bay,,(807) 684-3910,MHFA,Home with approximately 150 beds,Urban,No,Yes,Yes,Yes,No,
2799,Hamilton Niagara Haldimand Brant (Hnhb),Pleasant Manor Retirement Village,15 Elden Street,Postal Office Box 500,Niagara-on-the-Lake,L0S1T0, MS CHRISTINE LEONARD  ,Pleasant Manor Retirement Village,,(905) 468-1111,NH non-profit,Home with approximately 41 beds,Rural,No,Yes,No,No,No,
2761,Central East,Pleasant Meadow Manor,99 Alma Street,Postal Office Box 426,Norwood,K0L2V0, MS SANDRA TUCKER  ,0760444 B.C. Ltd. As General Partner On Behalf Of Omni Health Care Limited Partnership,,(705) 639-5308,NH for-profit,Home with approximately 61 beds,Rural,No,Yes,Yes,Yes,No,
2629,Central East,Port Perry Place,15941 Simcoe Street, ,Port Perry,L9L1N5, MS TISHA PEERS  ,"Cvh (No. 6) Lp By Its General Partners, Southbridge Health Care Gp Inc. And Southbridge Care Homes (A Limited Partnership, By Its General Partner, Southbridge Care Homes Inc.)",,(905) 985-3205,NH for-profit,Home with approximately 107 beds,Urban,No,Yes,Yes,Yes,No,
M620,Mississauga Halton,Post Inn Village,203 Georgian Drive, ,Oakville,L6H7H9, MS ANGELA ARCHER  ,The Regional Municipality Of Halton,,(905) 825-6000,MHFA,Home with approximately 228 beds,Urban,Yes,Yes,Yes,Yes,No,
M608,North West,Princess Court,Princess Street,Postal Office Box 725,Dryden,P8N2Z4, MR PATRICK BERREY  ,Kenora District Home For The Aged Board Of Management,,(807) 223-4600,MHFA,Home with approximately 97 beds,Urban,Yes,Yes,Yes,No,No,
3006,,Providence Healthcare,3276 Saint Clair Avenue East, ,Toronto,M1L1W1,,,,,CHFA,,Urban,,,,,,
3005,,Providence Manor,275 Sydenham Street, ,Kingston,K7K1G7,,,,,CHFA,,Urban,,,,,,
2853,Hamilton Niagara Haldimand Brant (Hnhb),Queen's Garden,80 Queen Street North, ,Hamilton,L8R3P6, Ms Candice Lanthier  ,Liuna Local 837 Nursing Home (Hamilton) Corporation,Chartwell Seniors Housing Reit,(905) 972-8889,NH non-profit,Home with approximately 128 beds,Urban,No,Yes,Yes,Yes,No,
933,South West,Queensway Long Term Care Home,100 Queen Street,Postal Office Box 369,Lakeside,N0M1X0, Ms Donna McLeod  ,"Cvh (No. 8) Lp By Its General Partners, Southbridge Health Care Gp Inc. And Southbridge Care Homes (A Limited Partnership, By Its General Partner, Southbridge Care Homes Inc.)",,(519) 262-2830,NH for-profit,Home with approximately 60 beds,Rural,Yes,Yes,Yes,Yes,No,
2991,,R. H. Lawson Eventide Home,5050 Jepson Street, ,Niagara Falls,L2E1K5,,,,,CHFA,,Urban,,,,,,
2820,North West,Rainy River Health Centre,114 Fourth Street,Postal Office Box 236,Rainy River,P0W1L0, MR TED SCHOLTEN  ,Riverside Health Care Facilities Inc.,,(807) 274-3261,NH non-profit,Home with approximately 21 beds,Rural,No,Yes,No,No,No,
3033,,Rainycrest,550 Osborne Street, ,Fort Frances,P9A3T2,,,,,CHFA,,Urban,,,,,,
2635,Central East,ReachView Village,130 Reach Street, ,Uxbridge,L9P1L3, MR WAYNE CONNELLY  ,Revera Long Term Care Inc.,,(905) 852-5191,NH for-profit,Home with approximately 100 beds,Urban,No,Yes,Yes,Yes,No,
2511,Central East,Regency Long Term Care Home,66 Dorset Street East, ,Port Hope,L1A1E3, MS SUSAN GALLANT  ,"Cvh (No. 6) Lp By Its General Partners, Southbridge Health Care Gp Inc. And Southbridge Care Homes (A Limited Partnership, By Its General Partner, Southbridge Care Homes Inc.)",,(905) 885-4558,NH for-profit,Home with approximately 60 beds,Urban,Yes,Yes,Yes,Yes,No,
2760,Erie St. Clair,Regency Park Long Term Care Home,567 Victoria Avenue, ,Windsor,N9A4N1, MS ANNEMARIE MELOCHE  ,"Dtoc Long Term Care Lp, By Its General Partner, Dtoc Long Term Care Mgp (A General Partnership) By Its Partners, Dtoc Long Term Care Gp Inc. And Arch Venture Holdings Inc.",Universalcare Canada Inc.,(519) 254-1141,NH for-profit,Home with approximately 72 beds,Urban,No,Yes,Yes,Yes,No,
2922,Hamilton Niagara Haldimand Brant (Hnhb),Regina Gardens,536 Upper Paradise Road, ,Hamilton,L9C5E3, Ms Heather Gates  ,Liuna Local 837 Nursing Home (Ancaster) Corporation,Chartwell Seniors Housing Reit,(905) 383-2970,NH non-profit,Home with approximately 128 beds,Urban,No,Yes,Yes,Yes,No,
M567,Champlain,Residence Prescott et Russell,1020 Cartier Boulevard, ,Hawkesbury,K6A1W7, MR ALEXANDRE GORMAN  ,United Counties Of Prescott And Russell,,(613) 632-2758,MHFA,Home with approximately 146 beds,Urban,Yes,Yes,Yes,Yes,No,
3013,,Residence Saint-Louis,879 Chemin Parc Hiawatha, ,Ottawa,K1C2Z6,,,,,CHFA,,Urban,,,,,,
1149,Erie St. Clair,Richmond Terrace,89 Rankin Avenue, ,Amherstburg,N9V1E7, MS HEATHER WHIFIELD  ,Richmond Terrace Limited,Apans Health Services,(519) 736-4295,NH for-profit,Home with approximately 120 beds,Urban,Yes,Yes,Yes,Yes,No,
M569,South East,Rideaucrest Home,175 Rideau Street, ,Kingston,K7K3H6, CASIE KEYES  ,The Corporation Of The City Of Kingston,,(613) 530-2818,MHFA,Home with approximately 170 beds,Urban,No,Yes,Yes,Yes,No,
2849,Hamilton Niagara Haldimand Brant (Hnhb),Ridgeview,385 Highland Road West, ,Hamilton,L8J3X9, MS Kim Rheinlander  ,Axr Operating (National) Lp,,(905) 561-3332,NH for-profit,Home with approximately 120 beds,Urban,No,Yes,Yes,Yes,No,
3007,,Ritz Lutheran Villa,4118 Road 164,"R.R. 5, Unit A",Mitchell,N0K1N0,,,,,CHFA,,Rural,,,,,,
1021,Central,River Glen Haven Nursing Home,160 High Street,Postal Office Box 368,Georgina,L0E1R0, Ms Darlene Horne  ,Atk Care Inc.,,(905) 722-3631,NH for-profit,Home with approximately 120 beds,Rural,No,Yes,Yes,Yes,No,
2753,Waterloo Wellington,Riverbend Place,650 Coronation Boulevard, ,Cambridge,N1R7S6, MS DEBORAH SIMS  ,Revera Long Term Care Inc.,,(519) 740-3820,NH for-profit,Home with approximately 54 beds,Urban,No,Yes,Yes,Yes,No,
2972,Erie St. Clair,Riverside Place,3181 Meadowbrook Lane, ,Windsor,N8T0A4, MR DAVID TOWERS  ,Axr Operating (National) Lp,,(519) 974-0148,NH for-profit,Home with approximately 96 beds,Urban,No,Yes,Yes,Yes,No,
M626,Erie St. Clair,Riverview Gardens,519 King Street West, ,Chatham-Kent,N7M1G8, MS MARY ALICE SEARLES  ,The Corporation Of The Municipality Of Chatham-kent,,(519) 352-4823,MHFA,Home with approximately 320 beds,Urban,Yes,Yes,Yes,No,No,
2722,Central East,Riverview Manor Nursing Home,1155 Water Street, ,Peterborough,K9H3P8, MS MARY ANNE GRECO  ,0760444 B.C. Ltd. As General Partner On Behalf Of Omni Health Care Limited Partnership,,(705) 748-6706,NH for-profit,Home with approximately 124 beds,Urban,No,Yes,Yes,Yes,No,
2839,North Simcoe Muskoka,Roberta Place,503 Essa Road, ,Barrie,L4N9E4, Ms Carrie Acton  ,Barrie Long Term Care Centre Inc.,Jarlette Health Services,(705) 733-3231,NH for-profit,Home with approximately 140 beds,Urban,No,Yes,No,Yes,No,
2131,Central East,Rockcliffe Care Community,3015 Lawrence Avenue East, ,Toronto,M1P2V7, MS NAZIRA JAFFER  ,Vigour Limited Partnership On Behalf Of Vigour General Partner Inc.,,(416) 264-3201,NH for-profit,Home with approximately 204 beds,Urban,Yes,Yes,Yes,Yes,No,
M570,South West,Rockwood Terrace Home for the Aged,575 Saddler Street East,Postal Office Box 660,Durham,N0G1R0, MS KAREN KRAUS  ,Corporation Of The County Of Grey,,(519) 369-6035,MHFA,Home with approximately 100 beds,Rural,No,Yes,Yes,No,No,
3038,Toronto Central,Rose of Sharon Korean Long Term Care,17 Maplewood Avenue, ,Toronto,M6C4B3, MS HELEN JUNG  ,Rose Of Sharon (Ontario) Retirement Community,Assured Care Consulting Inc.,(416) 979-7027,NH non-profit,Home with approximately 60 beds,Urban,No,Yes,Yes,No,No,
2671,South East,Rosebridge Manor,131 Roses Bridge Road,R.R. 2,Jasper,K0G1G0, MS TRACEY FOSTER  ,0760444 B.C. Ltd. As General Partner On Behalf Of Omni Health Care Limited Partnership,,(613) 283-5471,NH for-profit,Home with approximately 78 beds,Rural,No,Yes,Yes,Yes,No,
2766,North East,Rosedale Centre,507 - 8th Avenue,Postal Office Box 70,Matheson,P0K1N0, MR PAUL CHATELAIN  ,Bingham Memorial Hospital,,(705) 273-2424,NH non-profit,Home with approximately 20 beds,Rural,No,Yes,Yes,No,No,
2933,Champlain,Royal Ottawa Place,1145 Carling Avenue, ,Ottawa,K1Z7K4, MS DEBIE PILON (Interim)  ,Royal Ottawa Health Care Group,,(613) 722-6521,NH non-profit,Home with approximately 70 beds,Urban,Yes,Yes,Yes,Yes,No,
3049,Hamilton Niagara Haldimand Brant (Hnhb),Royal Rose Place,635 Prince Charles Drive North, ,Welland,L3C0C7, MS HELEN MILLAR  ,859530 Ontario Inc. (Operating As Jarlette Health Services),,rue,NH for-profit,Home with approximately 96 beds,Urban,No,No,No,No,No,
2767,Waterloo Wellington,Royal Terrace,600 Whites Road, ,Palmerston,N0G2P0, MS SHELLEY GOULD  ,Shanti Enterprises Limited,,(519) 343-2611,NH for-profit,Home with approximately 67 beds,Rural,No,Yes,Yes,Yes,No,
3014,,Saint Luke's Place,1624 Franklin Boulevard, ,Cambridge,N3C3P4,,,,,CHFA,,Urban,,,,,,
2778,Champlain,Sandfield Place,220 Emma Street, ,Cornwall,K6J5V8, MS STEPHANIE KINNEAR  ,458422 Ontario Limited,,(613) 933-6972,NH for-profit,Home with approximately 53 beds,Urban,No,Yes,Yes,Yes,No,
2810,North West,Santé Manitouwadge Health,1 Health Care Crescent, ,Manitouwadge,P0T2C0, MS DEBBIE HARDY  ,Sante Manitouwadge Health,,(807) 826-3251,NH non-profit,Home with approximately 9 beds,Rural,No,Yes,Yes,Yes,No,
2710,North Simcoe Muskoka,Sara Vista,27 Simcoe Street, ,Elmvale,L0L1P0, Ms Gale Coburn  ,Revera Long Term Care Inc.,,(705) 322-2182,NH for-profit,Home with approximately 60 beds,Rural,Yes,Yes,Yes,Yes,No,
943,Champlain,Sarsfield Colonial Home,2861 Colonial Road,Postal Office Box 130,Ottawa,K0A3E0, MS CHANTAL CRISPIN  ,2629693 Ontario Inc.,Taminagi Inc. (As Manager),(613) 835-2977,NH for-profit,Home with approximately 46 beds,Rural,No,Yes,Yes,Yes,No,"Recipient no 346524 – Sarsfield Colonial Home
Comment - Change in Ownership effective February 19 2020. Details transferred to Recipient no 664183/ Facility no NH1692
"
1135,South West,Seaforth Long Term Care Home,100 James Street, ,Huron East,N0K1W0, Ms Heather Whitfield  ,"Cvh (No. 8) Lp By Its General Partners, Southbridge Health Care Gp Inc. And Southbridge Care Homes (A Limited Partnership, By Its General Partner, Southbridge Care Homes Inc.)",,(519) 527-0030,NH for-profit,Home with approximately 63 beds,Rural,Yes,Yes,Yes,Yes,No,
2628,South West,Secord Trails Care Community,263 Wonham Street South, ,Ingersoll,N5C3P6, MS TAMMY LYN SMITH  ,Vigour Limited Partnership On Behalf Of Vigour General Partner Inc.,,(519) 485-3920,NH for-profit,Home with approximately 80 beds,Urban,Yes,Yes,Yes,Yes,No,
2744,Central,Seniors' Health Centre,2 Buchan Court, ,Toronto,M2J5A3, MS KATHY METCALFE  ,North York General Hospital,,(416) 756-0066,NH non-profit,Home with approximately 192 beds,Urban,Yes,Yes,Yes,Yes,No,
M571,Central East,Seven Oaks,9 Neilson Road, ,Toronto,M1E5E1, MR PETER PUIATTI  ,Toronto Long-term Care Homes And Services,,(416) 392-3500,MHFA,Home with approximately 249 beds,Urban,Yes,Yes,Yes,Yes,No,
3009,,Shalom Manor Long Term Care Home,12 Bartlett Avenue, ,Grimsby,L3M4N5,,,,,CHFA,,Urban,,,,,,
2775,Hamilton Niagara Haldimand Brant (Hnhb),Shalom Village Nursing Home,70 Macklin Street North, ,Hamilton,L8S3S1, Mr Kenneth Callaghan  ,Shalom Village Nursing Home,,(905) 529-1613,NH non-profit,Home with approximately 127 beds,Urban,No,Yes,Yes,Yes,No,
2762,Central West,Shelburne Long Term Care Home,200 Robert Street, ,Shelburne,L9V3S1, MS. LISA THOMPSON  ,"Cvh (No. 8) Lp By Its General Partners, Southbridge Health Care Gp Inc. And Southbridge Care Homes (A Limited Partnership, By Its General Partner, Southbridge Care Homes Inc.)",,(519) 925-3746,NH for-profit,Home with approximately 60 beds,Urban,Yes,Yes,Yes,Yes,No,
2782,Central East,Shepherd Lodge,3760 Sheppard Avenue East, ,Toronto,M1T3K9, MS CATHY FIORE  ,Shepherd Village Inc.,,(416) 609-5700,NH non-profit,Home with approximately 252 beds,Urban,No,Yes,Yes,Yes,No,
2754,Toronto Central,Sherbourne Place,345 Sherbourne Street, ,Toronto,M5A2S3, MS COLETTE CAMERON  ,Drs. Paul And John Rekai Centre,,(416) 964-1599,NH non-profit,Home with approximately 126 beds,Urban,Yes,Yes,No,Yes,No,
M572,Mississauga Halton,Sheridan Villa,2460 Truscott Drive, ,Mississauga,L5J3Z8, MS MARIANNE KLEIN  ,The Regional Municipality Of Peel,,(905) 791-8668,MHFA,Home with approximately 142 beds,Urban,No,Yes,Yes,Yes,No,
2894,Central,Sherwood Court Long Term Care Centre,300 Ravineview Drive, ,Vaughan,L6A3P8, LEEAN BOWMAN  ,Axr Operating (National) Lp,,(905) 303-3565,NH for-profit,Home with approximately 96 beds,Urban,No,Yes,Yes,Yes,No,
2640,South East,Sherwood Park Manor,1814 County Road  2 East, ,Brockville,K6V5T1, MR ALFRED O'ROURKE  ,Sherwood Park Manor,,(613) 342-5531,NH non-profit,Home with approximately 107 beds,Urban,No,Yes,Yes,No,No,
2956,Mississauga Halton,Silverthorn Care Community,4350 Mississauga Road, ,Mississauga,L5M7C8, Ms Chris Read  ,Specialty Care Mississauga Inc.,,(905) 817-7050,NH for-profit,Home with approximately 160 beds,Urban,No,Yes,Yes,Yes,No,
M573,Central,Simcoe Manor Home for the Aged,5988 8th Line,"Postal Office Box 100, Main Street East",New Tecumseth,L0G1A0, Ms Janina Grabowski  ,Corporation Of The County Of Simcoe,Simcoe County (Self-managed),(905) 729-2267,MHFA,Home with approximately 126 beds,Rural,Yes,Yes,Yes,Yes,No,
2113,Central,King City Lodge Nursing Home,146 Fog Road, ,King City,L7B1A3, SUKHWINDER PALIAL  ,Poranganel Holdings Limited,,(905) 833-5037,NH for-profit,Home with approximately 36 beds,Urban,No,Yes,Yes,Yes,No,
901,Central West,King Nursing Home,49 Street,Suite rne,Caledon,L7E1B9, MRS JANICE L. KING  ,King Nursing Home Limited,,(905) 857-4117,NH for-profit,Home with approximately 86 beds,Urban,Yes,Yes,Yes,Yes,No,
2726,South West,Kingsway Lodge Nursing Home,310 Queen Street East,R.R. 6,Saint Marys,N4X1C8, MS THERESA WAKEM  ,Kingsway Nursing Homes Limited,,(519) 284-2921,NH for-profit,Home with approximately 63 beds,Urban,Yes,Yes,Yes,No,No,
M545,Central West,Kipling Acres,2233 Kipling Avenue, ,Toronto,M9W4L3, MR BAMBO OLUWADIMU  ,Toronto Long-term Care Homes And Services,,(416) 392-2300,MHFA,Home with approximately 337 beds,Urban,Yes,Yes,Yes,Yes,No,
2996,,Knollcrest Lodge,50 William Street, ,Milverton,N0K1M0,,,,,CHFA,,Rural,,,,,,
2997,,Kristus Darzs Latvian Home,11290 Pine Valley Drive, ,Vaughan,L4L1A6,,,,,CHFA,,Urban,,,,,,
2860,Mississauga Halton,Labdara Lithuanian Nursing Home,5 Resurrection Road, ,Toronto,M9A5G1, MS LAURA PUTERIS  ,Labdara Foundation,Assured Care Consulting Inc.,(416) 232-2112,NH non-profit,Home with approximately 90 beds,Urban,No,Yes,Yes,No,No,
2875,North East,Lady Dunn Health Centre (Wawa),17 Government Road,Postal Office Box 179,Wawa,P0S1K0, MS KADEAN OGILVIE-PINTER  ,Lady Dunn Health Centre,,(705) 856-2335,NH non-profit,Home with approximately 16 beds,Rural,Yes,Yes,Yes,Yes,No,
2966,North East,Lakeland Long Term Care (Eldcap),6 Albert Street, ,Parry Sound,P2A3A4, MR STEVE WHITE (A)  ,West Parry Sound Health Centre,,(705) 746-9667,NH non-profit,Home with approximately 20 beds,Urban,No,No,No,No,No,
2958,North East,Lakeland Long Term Care Services,6 Albert Street, ,Parry Sound,P2A3A4, MR STEVE WHITE (A)  ,Lakeland Long Term Care Services Corporation,,(705) 746-9667,NH non-profit,Home with approximately 90 beds,Urban,No,Yes,No,No,No,
M595,Toronto Central,Lakeshore Lodge,3197 Lake Shore Boulevard West, ,Toronto,M8V3X5, MR RANJIT CALAY  ,Toronto Long-term Care Homes And Services,,(416) 392-9400,MHFA,Home with approximately 150 beds,Urban,No,Yes,Yes,Yes,No,
2929,Toronto Central,Lakeside Long Term Care Centre,150 Dunn Avenue, ,Toronto,M6K2R6, MS RACHELLE CUARESMA-CANLAS  ,Toronto Rehabilitation Institute,Extendicare (Canada) Inc.,(416) 533-2828,NH non-profit,Home with approximately 128 beds,Urban,Yes,Yes,Yes,Yes,No,
M546,Central East,Lakeview Manor,133 Main Street,Postal Office Box 514,Beaverton,L0K1A0, MR MICHAEL MACDONALD  ,Regional Municipality Of Durham,,(705) 426-7388,MHFA,Home with approximately 149 beds,Rural,Yes,Yes,Yes,Yes,No,
M547,Erie St. Clair,Lambton Meadowview Villa,3958 Petrolia Line,R.R. 4,Petrolia,N0N1R0, DULCIE LINDO  ,The Corporation Of The County Of Lambton,,(519) 882-1470,MHFA,Home with approximately 125 beds,Rural,No,Yes,Yes,No,No,
2917,Waterloo Wellington,Lanark Heights Long Term Care Centre,46 Lanark Crescent, ,Kitchener,N2N2Z8, MS HILDY NICKEL  ,Steeves & Rozema Enterprises Limited,,(519) 743-4200,NH for-profit,Home with approximately 160 beds,Urban,No,Yes,Yes,Yes,No,
M548,South East,Lanark Lodge,115 Christie Lake Road,"R. R. 4, Lot 27, Concession 2",Perth,K7H3C6, MS JENNIE BINGLEY  ,The Corporation Of The County Of Lanark,,(613) 267-4225,MHFA,Home with approximately 163 beds,Urban,Yes,Yes,Yes,Yes,No,
2907,Central,Langstaff Square Care Community,170 Red Maple Road, ,Richmond Hill,L4B4T8, MS DENIESE JOHNSON  ,2063414 Ontario Limited As General Partner Of 2063414 Investment Lp,,(905) 731-2273,NH for-profit,Home with approximately 160 beds,Urban,No,Yes,Yes,Yes,No,
2358,Waterloo Wellington,LaPointe-Fisher Nursing Home,271 Metcalfe Street, ,Guelph,N1E4Y8, MS DAHLIA BURT-GERRANS  ,"Lapointe-fisher Nursing Home, Limited",,(519) 821-9030,NH for-profit,Home with approximately 92 beds,Urban,No,Yes,Yes,Yes,No,
2835,North Simcoe Muskoka,Leacock Care Centre,25 Museum Drive, ,Orillia,L3V7T9, Ms. Rhonda Murray-Collins  ,Orillia Long Term Care Centre Inc.,,(705) 325-9181,NH for-profit,Home with approximately 145 beds,Urban,Yes,Yes,Yes,Yes,No,"705-325-9181 Ext.  201
DOC: Cara Sander
rcollins@jarlette.com
"
3035,,Leamington Mennonite Home Long Term Care Residence,35 Pickwick Drive, ,Leamington,N8H4T5,,,,,CHFA,,Urban,,,,,,
M549,South West,Lee Manor Home,875 Sixth Street East, ,Owen Sound,N4K5W5, MS STACEY GOLDIE  ,Corporation Of The County Of Grey,,(519) 376-4420,MHFA,Home with approximately 150 beds,Urban,No,Yes,Yes,No,No,
7089,,Lennox and Addington County General Hospital,8 Richmond Park Drive, ,Napanee,K7R2Z4,,,,,NH non-profit,,Urban,,,,,,
M551,Hamilton Niagara Haldimand Brant (Hnhb),Linhaven,403 Ontario Street, ,St. Catharines,L2N1L5, MS CINDY PERRODOU  ,The Regional Municipality Of Niagara,,(905) 934-3364,MHFA,Home with approximately 248 beds,Urban,Yes,Yes,Yes,Yes,No,
2845,Champlain,Longfields Manor,330 Beatrice Drive, ,Ottawa,K2J5A5, MS TRACY HALL-KONINK  ,Axr Operating (National) Lp,,(613) 823-8999,NH for-profit,Home with approximately 114 beds,Urban,No,Yes,Yes,Yes,No,
M552,Hamilton Niagara Haldimand Brant (Hnhb),Macassa  Lodge,701 Upper Sherman Avenue, ,Hamilton,L8V3M7, MS. HOLLY ODOARDI (A)  ,City Of Hamilton,,(905) 546-2800,MHFA,Home with approximately 270 beds,Urban,No,Yes,Yes,Yes,No,
2825,Central,Mackenzie Health Long Term Care Facility,10 Trench Street, ,Richmond Hill,L4C4Z3, MR ANDRE BARROS  ,Mackenzie Health,Universalcare Canada Inc.,(905) 883-2442,NH non-profit,Home with approximately 168 beds,Urban,No,Yes,Yes,Yes,No,
2611,Central,MacKenzie Place,52 George Street, ,Newmarket,L3Y4V3, MS YVONNE CARVALHO  ,Revera Long Term Care Inc.,,(905) 853-3242,NH for-profit,Home with approximately 93 beds,Urban,No,Yes,Yes,Yes,No,
2974,Champlain,Madonna Care Community,1541 Saint Joseph Boulevard, ,Ottawa,K1C7L3, Ms Denae Moores  ,The Royale Development Lp,,(613) 824-2040,NH for-profit,Home with approximately 160 beds,Urban,No,Yes,Yes,Yes,No,
2589,Toronto Central,Main Street Terrace,77 Main Street, ,Toronto,M4E2V6, MS JUDITH JACKSON  ,Revera Long Term Care Inc.,,(416) 690-3001,NH for-profit,Home with approximately 150 beds,Urban,Yes,Yes,Yes,Yes,No,
965,South West,Maitland Manor,290 South Street, ,Goderich,N7A4G6, Ms Tanya Adams  ,Grosvenor Health Care Partnership (No. 3),Extendicare (Canada) Inc.,(519) 524-7324,NH for-profit,Home with approximately 91 beds,Urban,Yes,Yes,Yes,Yes,No,
M618,Central West,Malton Village Long Term Care Centre,7075 Rexwood Road, ,Mississauga,L4T4M1, Mr Dwayne Green  ,The Regional Municipality Of Peel,,(905) 823-6700,MHFA,Home with approximately 160 beds,Urban,No,Yes,Yes,Yes,No,
M553,North East,Manitoulin Centennial Manor Home for the Aged,70 Robinson Street,Postal Office Bag 460,Little Current,P0P1K0, MS TAMARA BEAM  ,Manitoulin Centennial Manor Home For The Aged Board Of Management,Extendicare (Canada) Inc.,(705) 368-2710,MHFA,Home with approximately 60 beds,Rural,No,Yes,No,No,No,
2667,North East,Manitoulin Lodge,3 Main Street,Postal Office Box 648,Gore Bay,P0P1H0, MS SUSAN FARREN  ,584482 Ontario Inc.,,(705) 282-2007,NH for-profit,Home with approximately 61 beds,Rural,Yes,Yes,Yes,Yes,No,
2867,Champlain,Manoir Marochel,949 Montreal Road, ,Ottawa,K1K0S6, MR. PAUL BEVERLEY  ,"Cvh (No. 4) Lp By Its General Partners, Southbridge Health Care Gp Inc. And Southbridge Care Homes (A Limited Partnership, By Its General Partner, Southbridge Care Homes Inc.)",,(613) 744-1861,NH for-profit,Home with approximately 64 beds,Urban,No,Yes,Yes,No,No,
2911,Central West,Maple Grove Care Community,215 Sunny Meadow Boulevard, ,Brampton,L6R3B5, MS MICHELE MACKENZIE  ,2063415 Ontario Limited As General Partner Of 2063415 Investment Lp,,(905) 458-7604,NH for-profit,Home with approximately 160 beds,Urban,No,Yes,Yes,Yes,No,
1049,South West,Maple Manor Nursing Home,73 Bidwell Street, ,Tillsonburg,N4G3T8, Ulrike Lammel-Joseph  ,Maplewood Nursing Home Limited,,(519) 842-3563,NH for-profit,Home with approximately 106 beds,Urban,No,Yes,Yes,Yes,No,
2891,Hamilton Niagara Haldimand Brant (Hnhb),Maple Park Lodge,6 Hagey Avenue, ,Fort Erie,L2A5M5, MS CAROLE JUKOSKY  ,1365853 Ontario Limited,,(905) 994-0224,NH for-profit,Home with approximately 96 beds,Urban,No,Yes,Yes,Yes,No,
2690,South West,Maple View,1029 Avenue West,Unit 4th,Owen Sound,N4K4W1, MS TRACEE GIVENS  ,"Cvh (No. 3) Lp By Its General Partners, Southbridge Health Care Gp Inc. And Southbridge Care Homes (A Limited Partnership, By Its General Partner, Southbridge Care Homes Inc.)",,(519) 376-2522,NH for-profit,Home with approximately 29 beds,Urban,No,Yes,Yes,Yes,No,
M554,South East,Maple View Lodge,746 County Road,"Postal Office Box 100, 42 East",Athens,K0E1B0, MS TRACY JORDAN  ,United Counties Of Leeds And Grenville,,(613) 924-2696,MHFA,Home with approximately 60 beds,Rural,No,Yes,Yes,No,No,
2408,Hamilton Niagara Haldimand Brant (Hnhb),Maple Villa Long Term Care Centre,441 Maple Avenue, ,Burlington,L7S1L8, MRS BARBARA GOETZ  ,Dallov Holdings Limited,,(905) 639-2264,NH for-profit,Home with approximately 93 beds,Urban,No,Yes,Yes,Yes,No,
2717,South East,Maplewood,12 Maplewood Avenue,Postal Office Box 249,Brighton,K0K1H0, MS RACHEL CORKEY  ,0760444 B.C. Ltd. As General Partner On Behalf Of Omni Health Care Limited Partnership,,(613) 475-2442,NH for-profit,Home with approximately 49 beds,Rural,No,Yes,Yes,Yes,No,
2702,Champlain,Marianhill Nursing Home,600 Cecelia Street, ,Pembroke,K8A7Z3, MS LINDA M. TRACEY  ,Marianhill Inc.,,(613) 735-6838,NH non-profit,Home with approximately 139 beds,Urban,Yes,Yes,Yes,Yes,No,
2619,Central,Mariann Home,9915 Yonge Street, ,Richmond Hill,L4C1V1, MR BERNARD BORELAND  ,Mariann Nursing Home And Residence,,(905) 884-9276,NH non-profit,Home with approximately 64 beds,Urban,No,Yes,Yes,Yes,No,
2924,Central,Markhaven,54 Parkway Avenue, ,Markham,L3P2G4, MR MIKE BAKEWELL  ,"Markhaven, Inc.",,(905) 294-2233,NH non-profit,Home with approximately 96 beds,Urban,No,No,Yes,No,No,
M613,Erie St. Clair,Marshall Gowland Manor,749 Devine Street, ,Sarnia,N7T1X3, MS CARLA ALWAY  ,The Corporation Of The County Of Lambton,,(519) 336-3720,MHFA,Home with approximately 126 beds,Urban,No,Yes,Yes,No,No,
2780,North East,Mauno Kaihla Koti,723 North Street, ,Sault Ste. Marie,P6B6G8, MR PAUL BELAIR  ,The Ontario-finnish Resthome Association,,(705) 945-9987,NH non-profit,Home with approximately 63 beds,Urban,Yes,Yes,Yes,No,No,
3000,,Maxville Manor,80 Mechanic Street West, ,Maxville,K0C1T0,,,,,CHFA,,Rural,,,,,,
2211,Toronto Central,Maynard Nursing Home,28 Halton Street, ,Toronto,M6J1R3, JULIE MUSIC  ,Schlegel Villages Inc,,(416) 533-5198,NH for-profit,Home with approximately 77 beds,Urban,No,Yes,Yes,Yes,No,
7086,Mississauga Halton,McCall Centre Long Term Care Interim Unit,140 Sherway Drive, ,Toronto,M9C1A4, MS. LISA ROMANIELLO  ,The Credit Valley Hospital & Trillium Health Cntr,Extendicare (Canada) Inc.,(416) 259-2573,NH for-profit,Home with approximately 21 beds,Urban,No,Yes,No,Yes,No,
2965,South West,McCormick Home,2022 Kains Road, ,London,N6K0A8, MS TANYA POL  ,The Women's Christian Association Of London,,(519) 432-2648,NH non-profit,Home with approximately 160 beds,Urban,Yes,Yes,Yes,Yes,No,
2964,South West,McGarrell Place,355 McGarrell Drive, ,London,N6G0B1, Bidur Swamy  ,Axr Operating (National) Lp,,(519) 672-0500,NH for-profit,Home with approximately 157 beds,Urban,No,Yes,Yes,Yes,No,
2643,South West,Meadow Park (London),1210 Southdale Road East, ,London,N6E1B4, MS MICHELLE PRIESTER (Acting)  ,Meadow Park (London) Inc.,,(519) 686-0484,NH for-profit,Home with approximately 126 beds,Urban,Yes,Yes,Yes,Yes,No,
2685,Erie St. Clair,Meadow Park Nursing Home (Chatham),110 Sandys Street, ,Chatham-Kent,N7L4X3, MS ANNE-MARIE RUMBLE  ,Meadow Park (Chatham) Inc.,,(519) 351-1330,NH for-profit,Home with approximately 99 beds,Urban,Yes,Yes,Yes,Yes,No,
2612,South West,Meaford Long Term Care - a peopleCare Community,135 William Street, ,Meaford,N4L1T4, MR PAUL REKTOR  ,Meaford Nursing Home Limited,,(519) 538-1010,NH for-profit,Home with approximately 77 beds,Urban,Yes,Yes,Yes,Yes,No,
3016,,Mennonite Brethren Senior Citizens Home,1 Tabor Drive, ,St. Catharines,L2N1V9,,,,,CHFA,,Urban,,,,,,
1030,South West,Middlesex Terrace,2094 Gideon Drive,R.R. 1,Delaware,N0L1E0, JAN SHKILNYK  ,Middlesex Terrace Limited,Apans Health Services,(519) 652-3483,NH for-profit,Home with approximately 105 beds,Rural,No,Yes,Yes,Yes,No,
2789,Central East,Midland Gardens Care Community,130 Midland Avenue, ,Toronto,M1N4E6, MS LORA MONACO  ,2063414 Ontario Limited As General Partner Of 2063414 Investment Lp,,(416) 264-2301,NH for-profit,Home with approximately 299 beds,Urban,Yes,Yes,Yes,Yes,No,
2981,North Simcoe Muskoka,Mill Creek Care Centre,286 Hurst Drive, ,Barrie,L4N0Z3, MS. Althea Bess (Interim)  ,Mill Creek Care Centre,,(705) 719-6222,NH for-profit,Home with approximately 160 beds,Urban,Yes,Yes,Yes,Yes,No,
2948,Hamilton Niagara Haldimand Brant (Hnhb),Millennium Trail Manor,6861 Oakwood Drive, ,Niagara Falls,L2E6S5, Ms Lori Turcotte  ,955464 Ontario Limited,Self-management,(905) 356-5005,NH for-profit,Home with approximately 160 beds,Urban,No,Yes,Yes,Yes,No,
M621,Champlain,Miramichi Lodge,725 Pembroke Street West, ,Pembroke,K8A8S6, MR MIKE BLACKMORE  ,County Of Renfrew,,(613) 735-0175,MHFA,Home with approximately 166 beds,Urban,Yes,Yes,Yes,Yes,No,
1078,Mississauga Halton,Mississauga Long Term Care Facility,26 Peter Street North, ,Mississauga,L5H2G7, MR NOVAK BAJIN  ,Mississauga Long Term Care Facility Inc.,,(905) 278-2213,NH for-profit,Home with approximately 55 beds,Urban,No,Yes,No,Yes,No,
2689,South West,Mitchell Nursing Home,184 Napier Street South,"Unit 1, S",Mitchell,N0K1N0, MS TANYA MACDONALD  ,Ritz Lutheran Villa,,(519) 348-8861,NH non-profit,Home with approximately 48 beds,Rural,No,Yes,Yes,No,No,
2977,South East,Moira Place Long-Term Care Home,415 River Street West,Postal Office Box 200,Tweed,K0K3J0, MR MICHAEL O'KEEFFE  ,Aon Inc.,,(613) 478-5524,NH for-profit,Home with approximately 128 beds,Rural,No,Yes,Yes,Yes,No,
3002,,Mon Sheong Home for the Aged,36 D'Arcy Street, ,Toronto,M5T1J7,,,,,CHFA,,Urban,,,,,,
2897,Central,Mon Sheong Richmond Hill Long Term Care Centre,11199 Yonge Street, ,Richmond Hill,L4S1L2, MS SHERRY LI  ,Mon Sheong Foundation,,(905) 883-9288,NH non-profit,Home with approximately 192 beds,Urban,Yes,Yes,Yes,No,No,
2944,Central East,Mon Sheong Scarborough Long Term Care Centre,2030 McNicoll Avenue, ,Toronto,M1V5P4, MS STELLA LEUNG  ,Mon Sheong Foundation,,(416) 291-3898,NH non-profit,Home with approximately 160 beds,Urban,Yes,Yes,Yes,No,No,
2886,Champlain,Montfort,705 Montreal Road, ,Ottawa,K1K0M9, MS KELLY BOISCLAIR  ,Revera Long Term Care Inc.,,(613) 746-8602,NH for-profit,Home with approximately 128 beds,Urban,No,Yes,Yes,Yes,Yes,
2727,Waterloo Wellington,Morriston Park Nursing Home,7363 Calfass Road,R.R. 2,Puslinch,N0B2J0, MS KAREN BOLGER  ,Retirement Home Specialists Incorporated,,(519) 822-9179,NH for-profit,Home with approximately 28 beds,Rural,No,Yes,No,No,No,
C596,South West,Mount Hope Centre for Long Term Care,21 Grosvenor Street,Postal Office Box 5777,London,N6A1Y6, MR.ANDREW ADAMYK  ,"St. Joseph's Health Care, London",,(519) 646-6000,CHFA,Home with approximately 177 beds,Urban,Yes,Yes,Yes,Yes,No,
2577,Hamilton Niagara Haldimand Brant (Hnhb),Mount Nemo Christian Nursing Home,4486 Guelph Line, ,Burlington,L7P0N2, Ms Karen Edge  ,Canadian Reformed Society For A Home For The Aged Inc.,,(905) 335-3636,NH non-profit,Home with approximately 61 beds,Urban,No,Yes,Yes,Yes,No,
2840,North Simcoe Muskoka,Muskoka Landing,65 Rogers Cove Drive, ,Huntsville,P1H2L9, MS PAMM REAIN  ,Huntsville Long Term Care Centre Inc.,,(705) 788-7713,NH for-profit,Home with approximately 94 beds,Urban,Yes,Yes,Yes,Yes,No,
2819,North Simcoe Muskoka,Muskoka Shores Care Community,200 Kelly Drive, ,Gravenhurst,P1P1P3, MS ANGELA COUTTS  ,2063412 Ontario Limited As General Partner Of 2063412 Investment Lp,,(705) 687-3444,NH for-profit,Home with approximately 183 beds,Urban,No,Yes,Yes,Yes,No,
2607,Hamilton Niagara Haldimand Brant (Hnhb),"Niagara Health System, Welland Hospital Site, Extended Care Unit",65 Third Street, ,Welland,L3B4W6, MS DEBBIE SMITH  ,Niagara Health System,,(905) 732-6111,NH non-profit,Home with approximately 115 beds,Urban,No,Yes,No,Yes,No,
2994,,Niagara Ina Grafton Gage Village,413 Linwell Road, ,St. Catharines,L2M7Y2,,,,,CHFA,,Urban,,,,,,
2793,North West,Nipigon District Memorial Hospital,125 Hogan Road,Postal Office Box 37,Nipigon,P0T2J0, Ms Jacqueline Dorval  ,Nipigon District Memorial Hospital,,(807) 887-3026,NH non-profit,Home with approximately 15 beds,Rural,No,Yes,No,Yes,No,
920,North East,Nipissing Manor Nursing Care Center,1202 Highway 94, ,Corbeil,P0H1K0, MR WENTWORTH GRAHAM  ,1895357 Ontario Inc.,,(705) 752-1100,NH for-profit,Home with approximately 120 beds,Rural,No,Yes,Yes,Yes,No,
3003,,Nisbet Lodge,740 Pape Avenue, ,Toronto,M4K3S7,,,,,CHFA,,Urban,,,,,,
3004,,Nithview Home,200 Boullee Street, ,New Hamburg,N3A2K4,,,,,CHFA,,Urban,,,,,,
2918,Central,Norfinch Care Community,22 Norfinch Drive, ,Toronto,M3N1X1, Gajany Sivalingam  ,2063414 Ontario Limited As General Partner Of 2063414 Investment Lp,,(416) 623-1120,NH for-profit,Home with approximately 160 beds,Urban,No,Yes,Yes,Yes,No,
3027,,North Centennial Manor,2 Kimberly Drive, ,Kapuskasing,P5N1L5,,,,,CHFA,,Urban,,,,,,
M559,Erie St. Clair,North Lambton Lodge,39 Morris Street,R.R. 6,Lambton Shores,N0N1J0, MR DAVE GROOTJEN  ,The Corporation Of The County Of Lambton,,(519) 786-2151,MHFA,Home with approximately 88 beds,Rural,No,Yes,Yes,No,No,
909,Central,North Park Nursing Home,450 Rustic Road, ,Toronto,M6L1W9, MS NATASHA MURRAY  ,North Park Nursing Home Limited,Assured Care Consulting Inc.,(416) 247-0531,NH for-profit,Home with approximately 75 beds,Urban,No,Yes,Yes,Yes,No,
3036,,North Renfrew Long-Term Care Services,47 Ridge Road,Postal Office Box 1988,Deep River,K0J1P0,,,,,CHFA,,Rural,,,,,,
2795,North East,North Shore Health Network - Eldcap Unit,525 Causley Street,Postal Office Box 970,Blind River,P0R1B0, MR RALPH BARKER  ,North Shore Health Network,,(705) 356-2265,NH non-profit,Home with approximately 10 beds,Rural,No,Yes,No,Yes,No,
2865,North East,North Shore Health Network - LTC Unit,525 Causley Street,Postal Office Box 970,Blind River,P0R1B0, MR RALPH BARKER  ,North Shore Health Network,,(705) 356-2265,NH non-profit,Home with approximately 22 beds,Rural,No,Yes,Yes,Yes,No,
M610,Hamilton Niagara Haldimand Brant (Hnhb),Northland Pointe,2 Fielden Avenue, ,Port Colborne,L3K6G4, MS GAIL GILL  ,The Regional Municipality Of Niagara,,(905) 835-9335,MHFA,Home with approximately 151 beds,Urban,No,Yes,No,Yes,No,
2862,Mississauga Halton,Northridge,496 Postridge Drive, ,Oakville,L6H7A2, MS LESLEY HARRIS  ,Axr Operating (National) Lp,,(905) 257-9882,NH for-profit,Home with approximately 133 beds,Urban,No,Yes,Yes,Yes,No,
2622,South West,Craigholme,221 Main Street,R.R. 1,Ailsa Craig,N0M1A0, ERNIE HARRIS (Interim)  ,Craigwiel Gardens,,(519) 293-3215,NH non-profit,Home with approximately 83 beds,Rural,Yes,Yes,Yes,No,No,stutti@craigwielgardens.on.ca   
2503,Central East,Craiglee Nursing Home,102 Craiglee Drive, ,Toronto,M1N2M7, Mr Adam Kertesz  ,Craiglee Nursing Home Limited,Extendicare (Canada) Inc.,(416) 264-2000,NH for-profit,Home with approximately 169 beds,Urban,No,Yes,Yes,Yes,No,
2633,North Simcoe Muskoka,Creedan Valley Care Community,143 Mary Street, ,Creemore,L0M1G0, Ms. Sadie Friesner  ,2063412 Ontario Limited As General Partner Of 2063412 Investment Lp,,(705) 466-3437,NH for-profit,Home with approximately 95 beds,Rural,No,Yes,Yes,Yes,No,
M623,Hamilton Niagara Haldimand Brant (Hnhb),Creek Way Village,5200 Corporate Drive, ,Burlington,L7L7G7, MS Lorianne Ledwez  ,The Regional Municipality Of Halton,,(905) 825-6000,MHFA,Home with approximately 144 beds,Urban,No,Yes,Yes,Yes,No,
2587,Hamilton Niagara Haldimand Brant (Hnhb),Crescent Park Lodge,4 Hagey Avenue, ,Fort Erie,L2A5M5, MRS ROSEMARY TURNER  ,955464 Ontario Limited,,(905) 871-8330,NH for-profit,Home with approximately 68 beds,Urban,Yes,Yes,Yes,Yes,No,
2787,South East,Crown Ridge Place,106 Crown Street, ,Quinte West,K8V6R3, MS SANDRA HONEY  ,Crown Ridge Health Care Services Inc.,,(613) 392-1289,NH for-profit,Home with approximately 116 beds,Urban,Yes,Yes,Yes,Yes,No,
M512,Central,Cummer Lodge,205 Cummer Avenue, ,Toronto,M2M2E8, Hao Chau  ,Toronto Long-term Care Homes And Services,,(416) 392-9500,MHFA,Home with approximately 391 beds,Urban,Yes,Yes,Yes,Yes,No,
M514,South West,Dearness Home for Senior Citizens,710 Southdale Road East, ,London,N6E1R8, LESLIE HANCOCK  ,The Corporation Of The City Of London,,(519) 661-0400,MHFA,Home with approximately 243 beds,Urban,Yes,Yes,Yes,Yes,No,"Datars Bere, Dearness Home Managing Director "
M611,Hamilton Niagara Haldimand Brant (Hnhb),Deer Park Villa,150 Central Avenue, ,Grimsby,L3M4Z3, MS KAREN POW  ,The Regional Municipality Of Niagara,,(905) 945-4164,MHFA,Home with approximately 39 beds,Urban,No,Yes,No,Yes,No,
2837,Central West,Deerwood Creek Care Community,70 Humberline Drive, ,Toronto,M9W7H3, MS LORA MONACO  ,2063414 Ontario Limited As General Partner Of 2063414 Investment Lp,,(416) 213-7300,NH for-profit,Home with approximately 160 beds,Urban,No,Yes,Yes,Yes,No,
2660,Hamilton Niagara Haldimand Brant (Hnhb),Delhi Long Term Care Centre,750 Gibraltar Street, ,Delhi,N4B3B3, Ms Debbie Cornell  ,Delhi Nursing Home Ltd.,,(519) 582-3400,NH for-profit,Home with approximately 60 beds,Urban,No,Yes,No,Yes,No,
2134,Waterloo Wellington,Derbecker's Heritage House,54 Eby Street, ,St. Jacobs,N0B2N0, MS PAMELA DERBECKER  ,Derbecker's Heritage House Limited,,(519) 664-2921,NH for-profit,Home with approximately 73 beds,Rural,No,Yes,No,No,No,
2794,Mississauga Halton,Dom Lipa,52 Neilson Drive, ,Toronto,M9C1V7, MS JOLANTA LINDE  ,Slovenian Linden Foundation,,(416) 621-3820,NH non-profit,Home with approximately 66 beds,Urban,No,Yes,No,No,No,
M604,Hamilton Niagara Haldimand Brant (Hnhb),Douglas H. Rapelje Lodge,277 Plymouth Road, ,Welland,L3B6E3, Ms Ada DiFlavio  ,The Regional Municipality Of Niagara,,(905) 714-7428,MHFA,Home with approximately 120 beds,Urban,Yes,Yes,Yes,Yes,No,
1056,Hamilton Niagara Haldimand Brant (Hnhb),Dover Cliffs,501 St. George Street,Postal Office Box 430,Port Dover,N0A1N0, Ms Pauline Robinson  ,Dover Cliffs Operating Inc.,,(519) 583-1422,NH for-profit,Home with approximately 70 beds,Rural,Yes,Yes,Yes,Yes,No,
1041,Central,Downsview Long Term Care Centre,3595 Keele Street, ,Toronto,M3J1M7, MR ROBERT SCOTT  ,Gem Health Care Group Limited,Humber River Hospital,(416) 633-3431,NH for-profit,Home with approximately 252 beds,Urban,Yes,Yes,Yes,Yes,No,
M516,Central West,Dufferin Oaks,151 Centre Street, ,Shelburne,L9V3R7, MS. BRENDA WAGNER  ,Corporation Of The County Of Dufferin,,(519) 925-2140,MHFA,Home with approximately 160 beds,Urban,No,Yes,Yes,No,No,
2674,Champlain,Dundas Manor Nursing Home,533 Clarence Street,Postal Office Box 970,Winchester,K0C2K0, MS SUSAN POIRIER  ,Rural Healthcare Innovations Inc.,Winchester District Memorial Hospital,(613) 774-2293,NH non-profit,Home with approximately 98 beds,Rural,No,Yes,Yes,Yes,No,
2739,Hamilton Niagara Haldimand Brant (Hnhb),Dundurn Place Care Centre,39 Mary Street, ,Hamilton,L8R3L8, Mr Danny Pereira  ,Rykka Care Centres Lp,,(905) 523-6427,NH for-profit,Home with approximately 201 beds,Urban,Yes,Yes,Yes,Yes,No,
2668,South East,E. J. McQuigge Lodge,38 Black Diamond Road,Postal Office Box 68,Belleville,K0K1K0, MRS ANITA GARLAND  ,Keay Nursing Homes Inc.,,(613) 966-7717,NH for-profit,Home with approximately 57 beds,Rural,Yes,Yes,No,Yes,No,
2240,Central,Eagle Terrace,329 Eagle Street, ,Newmarket,L3Y1K3, MRS DIANE T. BRUNELLE-MARLEAU  ,Revera Long Term Care Inc.,,(905) 895-5187,NH for-profit,Home with approximately 70 beds,Urban,No,Yes,Yes,Yes,No,
3047,South West,Earls Court Village,1390 Highbury Avenue North, ,London,N5Y0B6, ROB BISSONNETTE  ,Sharon Farms & Enterprises Limited,Responsive Health Management Inc.,(519) 601-5088,NH for-profit,Home with approximately 128 beds,Urban,No,Yes,Yes,Yes,No,
M517,North East,Eastholme Home for the Aged,62 Big Bend Avenue,Postal Office Box 400,Powassan,P0H1Z0, Ms Odelia Callery  ,East District Of Parry Sound Home For The Aged,,(705) 724-2005,MHFA,Home with approximately 128 beds,Rural,No,Yes,Yes,No,No,
2468,Mississauga Halton,Eatonville Care Centre,420 The East Mall, ,Toronto,M9B3Z9, MS EVELYN MACDONALD  ,Rykka Care Centres Lp,,(416) 621-8000,NH for-profit,Home with approximately 247 beds,Urban,No,Yes,Yes,Yes,No,
2777,Waterloo Wellington,Eden House Nursing Home,5016 Wellington County Road 29,R.R. 2,Guelph,N1H6H8, MS SHELLEY NICOL  ,Eden House Care Facility Inc.,Assured Care Consulting Inc.,(519) 856-4622,NH for-profit,Home with approximately 59 beds,Urban,No,Yes,Yes,Yes,No,
2963,Hamilton Niagara Haldimand Brant (Hnhb),Edgewater Gardens Long Term Care Centre,428 Broad Street West, ,Dunnville,N1A1T3, MR. GREG ALLEN  ,Haldimand War Memorial Hospital,,(905) 774-2503,NH non-profit,Home with approximately 64 beds,Urban,No,Yes,Yes,Yes,No,
2804,Central East,Ehatare Nursing Home,40 Old Kingston Road, ,Toronto,M1E3J5, Ms Sarah Rooney  ,Estonian Relief Committee In Canada,,(416) 284-0813,NH non-profit,Home with approximately 32 beds,Urban,No,Yes,Yes,No,No,
2725,South West,Elgin Abbey Nursing Home,380 First Avenue North,Postal Office Box 7,Chesley,N0G1L0, MS BRENDA DENT  ,Capricorn Investments Corporation Limited,Extendicare (Canada) Inc.,(519) 363-3195,NH for-profit,Home with approximately 27 beds,Rural,No,Yes,No,Yes,No,
M518,South West,Elgin Manor,39262 Fingal Line,R.R. 1,St. Thomas,N5P3S5, MS TERRI BENWELL  ,The Corporation Of The County Of Elgin Municipal Homes,,(519) 631-0620,MHFA,Home with approximately 90 beds,Urban,Yes,Yes,Yes,No,No,
2869,Central,Elginwood,182 Yorkland Street, ,Richmond Hill,L4S2M9, MS LAURA POWELL  ,Axr Operating (National) Lp,,(905) 737-0858,NH for-profit,Home with approximately 124 beds,Urban,Yes,Yes,Yes,Yes,No,
2759,Champlain,Élisabeth-Bruyère Residence,75 Bruyère Street, ,Ottawa,K1N5C8, MS CHANTALE CAMERON  ,Bruyère Continuing Care Inc.,,(613) 562-6262,NH non-profit,Home with approximately 71 beds,Urban,No,Yes,Yes,Yes,No,
2868,North East,Elizabeth Centre,2100 Main Street, ,Greater Sudbury,P3N1S7, MS STEPHANIE ZAKROCKI  ,Valley East Long Term Care Centre Inc.,,(705) 897-7695,NH for-profit,Home with approximately 128 beds,Urban,Yes,Yes,Yes,Yes,No,
2515,Toronto Central,Elm Grove Living Centre,35 Elm Grove Avenue, ,Toronto,M6K2J2, MR SANDRO PERCIAMONTANI  ,Elm Grove Living Centre Inc.,,(416) 537-2465,NH for-profit,Home with approximately 126 beds,Urban,No,Yes,No,Yes,No,
2662,South West,Elmwood Place,46 Elmwood Place West, ,London,N6J1J2, MS LISA MAYNARD  ,Revera Long Term Care Inc.,,(519) 433-7259,NH for-profit,Home with approximately 78 beds,Urban,No,Yes,Yes,Yes,No,
2831,North West,EMO Health Centre,170 Front Street,Postal Office Box 390,Emo,P0W1E0, MS EMILY BOSMA  ,Riverside Health Care Facilities Inc.,,(807) 274-3261,NH non-profit,Home with approximately 12 beds,Rural,No,Yes,No,Yes,No,
2736,Mississauga Halton,Erin Mills Lodge Nursing Home,2132 Dundas Street West, ,Mississauga,L5K2K7, SUTHA VINAYAGA  ,Schlegel Villages Inc.,,(905) 823-7273,NH for-profit,Home with approximately 86 beds,Urban,No,Yes,Yes,Yes,No,
2513,South West,Errinrung Long Term Care Home,67 Bruce Street South,Postal Office Box 69,The Blue Mountains,N0H2P0, LEANNE HAYNES  ,"Cvh (No. 8) Lp By Its General Partners, Southbridge Health Care Gp Inc. And Southbridge Care Homes (A Limited Partnership, By Its General Partner, Southbridge Care Homes Inc.)",,(519) 599-2737,NH for-profit,Home with approximately 60 beds,Rural,Yes,Yes,Yes,Yes,No,
2755,North East,Espanola General Hospital (operating as Espanola Nursing Home-Eldcap),825 Mckinnon Drive, ,Espanola,P5E1R4, MS NICOLE HALEY  ,Espanola General Hospital,,(705) 869-1420,NH non-profit,Home with approximately 30 beds,Urban,No,Yes,Yes,Yes,No,
2932,North East,Espanola General Hospital (operating as Espanola Nursing Home-LTC),825 Mckinnon Drive, ,Espanola,P5E1R4, MS NICOLE HALEY  ,Espanola General Hospital,,(705) 869-1420,NH non-profit,Home with approximately 32 beds,Urban,No,Yes,Yes,Yes,No,
2749,South West,Exeter Villa,155 John Street East, ,Exeter,N0M1S1, MS ERIKA KING  ,Atk Care Inc.,,(519) 235-1581,NH for-profit,Home with approximately 47 beds,Rural,Yes,Yes,No,Yes,No,
2460,Central,Extendicare Bayview,550 Cummer Avenue, ,Toronto,M2K2M2, MS DANIELLE ZHANG  ,Extendicare (Canada) Inc.,,(416) 226-1331,NH for-profit,Home with approximately 205 beds,Urban,Yes,Yes,Yes,Yes,No,
2847,Central West,Extendicare Brampton,7891 McLaughlin Road, ,Brampton,L6Y5H8, MS HANNAH OKSEMBERG  ,Extendicare (Canada) Inc.,,(905) 456-4200,NH for-profit,Home with approximately 150 beds,Urban,No,Yes,Yes,Yes,No,
2851,Central East,Extendicare Cobourg,130 New Densmore Road, ,Cobourg,K9A5W2, MR ALLAN MYLES  ,Extendicare (Canada) Inc.,,(905) 372-0377,NH for-profit,Home with approximately 69 beds,Urban,No,Yes,Yes,Yes,No,
2590,North East,Extendicare Falconbridge,281 Falconbridge Road, ,Greater Sudbury,P3A5K4, MS. LAURA HALLORAN  ,Extendicare (Canada) Inc.,,(705) 566-7980,NH for-profit,Home with approximately 234 beds,Urban,Yes,Yes,Yes,Yes,No,
2164,Central East,Extendicare Guildwood,60 Guildwood Parkway, ,Toronto,M1E1N9, Ms Deslyn Willock  ,Extendicare (Canada) Inc.,,(416) 266-7711,NH for-profit,Home with approximately 169 beds,Urban,Yes,Yes,Yes,Yes,No,
2644,Central East,Extendicare Haliburton,167 Park Street,Postal Office Box 780,Haliburton,K0M1S0, MR NIK CHANDRABALAN  ,Extendicare (Canada) Inc.,,(705) 457-1722,NH for-profit,Home with approximately 60 beds,Rural,No,Yes,Yes,Yes,No,
2892,Mississauga Halton,Extendicare Halton Hills,9 Lindsay Court, ,Halton Hills,L7G6G9, MS EMILY BOSMA  ,Extendicare (Canada) Inc.,,(905) 702-8760,NH for-profit,Home with approximately 130 beds,Urban,No,Yes,Yes,Yes,No,
2858,Hamilton Niagara Haldimand Brant (Hnhb),Extendicare Hamilton,90 Chedmac Drive, ,Hamilton,L9C7S6, MS PILAR HENDERSON  ,Extendicare (Canada) Inc.,,(905) 318-4472,NH for-profit,Home with approximately 160 beds,Urban,No,Yes,Yes,Yes,No,
2610,North East,Extendicare Kapuskasing,45 Ontario Street,Postal Office Box 460,Kapuskasing,P5N2Y5, MS CLAUDETTE BROUZES  ,Extendicare (Canada) Inc.,,(705) 335-8337,NH for-profit,Home with approximately 61 beds,Urban,Yes,Yes,Yes,Yes,Yes,
2838,Central East,Extendicare Kawartha Lakes,125 Colborne Street East, ,Kawartha Lakes,K9V6J2, MS NANCY ROONEY  ,Extendicare (Canada) Inc.,,(705) 878-5392,NH for-profit,Home with approximately 64 beds,Urban,No,Yes,No,Yes,No,
2616,South East,Extendicare Kingston,309 Queen Mary Road, ,Kingston,K7M6P4, MS TAWNIA PILGRIM  ,Extendicare (Canada) Inc.,,(613) 549-5010,NH for-profit,Home with approximately 150 beds,Urban,No,Yes,Yes,Yes,No,
2670,North East,Extendicare Kirkland Lake,155 Government Road East, ,Kirkland Lake,P2N3P4, MS JENNIFER KASNER  ,Extendicare (Canada) Inc.,,(705) 567-3268,NH for-profit,Home with approximately 100 beds,Urban,Yes,Yes,Yes,Yes,No,
2843,Central East,Extendicare Lakefield,19 Fraser Street, ,Harcourt,K0L2H0, MS DAWN BALDWIN  ,Extendicare (Canada) Inc.,,(705) 652-7112,NH for-profit,Home with approximately 100 beds,Rural,Yes,Yes,Yes,Yes,No,
2665,Champlain,Extendicare Laurier Manor,1715 Montreal Road, ,Ottawa,K1J6N4, MR CHRIS SMITH  ,New Orchard Lodge Limited [a Subsidiary Of Extendicare (Canada) Inc.],The Ottawa Hospital,(613) 741-5122,NH for-profit,Home with approximately 242 beds,Urban,No,Yes,Yes,Yes,No,"Name: Cameron Love
Position: President & CEO
1053 Carling Avenue
Ottawa ON K1Y 4E9
Phone:
E-mail: clove@toh.ca"
2173,South West,Extendicare London,860 Waterloo Street, ,London,N6A3W6, MR ABE MOHARRAM  ,Extendicare Toronto Inc. [a Subsidiary Of Extendicare (Canada) Inc.],,(519) 433-6658,NH for-profit,Home with approximately 170 beds,Urban,Yes,Yes,Yes,Yes,No,
3043,North East,Extendicare Maple View of Sault Ste. Marie,650 Northern Avenue, ,Sault Ste. Marie,P6B4J3, MS MARVA GRIFFITHS  ,Extendicare (Canada) Inc.,,rue,NH for-profit,Home with approximately 256 beds,Urban,No,Yes,Yes,Yes,No,
2579,Champlain,Extendicare Medex,1865 Baseline Road, ,Ottawa,K2C3K6, MS. TINA NAULT  ,Extendicare Northeastern Ontario Inc. [a Subsidiary Of Extendicare (Canada) Inc.],,(613) 225-5650,NH for-profit,Home with approximately 193 beds,Urban,No,Yes,No,Yes,No,
2884,Mississauga Halton,Extendicare Mississauga,855 John Watt Boulevard, ,Mississauga,L5W1G2, MS. ISHRANI KUNJI  ,Extendicare (Canada) Inc.,,(905) 696-0719,NH for-profit,Home with approximately 140 beds,Urban,No,Yes,Yes,Yes,No,
2302,Champlain,Extendicare New Orchard Lodge,99 New Orchard Avenue, ,Ottawa,K2B5E6, MR CLAYTON DONNELY  ,New Orchard Lodge Limited [a Subsidiary Of Extendicare (Canada) Inc.],,(613) 820-2110,NH for-profit,Home with approximately 111 beds,Urban,No,Yes,No,Yes,No,
2439,Central East,Extendicare Oshawa,82 Park Road North, ,Oshawa,L1J4L1, MS DEBORAH WOODS  ,Extendicare Central Ontario Inc. [a Subsidiary Of Extendicare (Canada) Inc.],,(905) 579-0011,NH for-profit,Home with approximately 175 beds,Urban,Yes,Yes,Yes,Yes,No,
2572,Central East,Extendicare Peterborough,860 Alexander Court, ,Peterborough,K9J6B4, MR BILL THURLOW  ,Extendicare Central Ontario Inc. [a Subsidiary Of Extendicare (Canada) Inc.],,(705) 743-7552,NH for-profit,Home with approximately 174 beds,Urban,Yes,Yes,Yes,Yes,No,
2925,Central East,Extendicare Port Hope,360 Croft Street, ,Port Hope,L1A4K8, MR JEFF DONOVAN  ,Extendicare (Canada) Inc.,,(905) 885-1266,NH for-profit,Home with approximately 128 beds,Urban,No,Yes,Yes,Yes,No,
2669,South West,Extendicare Port Stanley,4551 East Road, ,Port Stanley,N5L1J6, MS LYNSEY MCINTYRE  ,Extendicare Southwestern Ontario Inc. [a Subsidiary Of Extendicare (Canada) Inc.],,(519) 782-3339,NH for-profit,Home with approximately 60 beds,Urban,Yes,Yes,Yes,Yes,No,
2883,Central East,Extendicare Rouge Valley,551 Conlins Road, ,Toronto,M1B5S1, Ms Jessica Lauri  ,Extendicare (Canada) Inc.,,(416) 282-6768,NH for-profit,Home with approximately 192 beds,Urban,Yes,Yes,Yes,Yes,No,
2117,Central East,Extendicare Scarborough,3830 Lawrence Avenue East, ,Toronto,M1G1R6, MS PINKY VIRDI  ,Extendicare Toronto Inc. [a Subsidiary Of Extendicare (Canada) Inc.],,(416) 439-1243,NH for-profit,Home with approximately 154 beds,Urban,Yes,Yes,Yes,Yes,No,
2842,Erie St. Clair,Extendicare Southwood Lakes,1255 North Talbot Road, ,Windsor,N9G3A4, MS SUE ETHIER  ,Extendicare (Canada) Inc.,,(519) 945-7249,NH for-profit,Home with approximately 150 beds,Urban,No,Yes,Yes,Yes,No,
2321,Hamilton Niagara Haldimand Brant (Hnhb),Extendicare St. Catharines,283 Pelham Road, ,St. Catharines,L2S1X7, MS JANE FREEMAN  ,Extendicare Southwestern Ontario Inc. [a Subsidiary Of Extendicare (Canada) Inc.],,(905) 688-3311,NH for-profit,Home with approximately 153 beds,Urban,No,Yes,Yes,Yes,No,
2485,Champlain,Extendicare Starwood,114 Starwood Road, ,Ottawa,K2G3N5, MS SUE MACGREGOR  ,Extendicare Northeastern Ontario Inc. [a Subsidiary Of Extendicare (Canada) Inc.],,(613) 224-3960,NH for-profit,Home with approximately 192 beds,Urban,No,Yes,Yes,Yes,No,
2904,Erie St. Clair,Extendicare Tecumseh,2475 St. Alphonse Street, ,Tecumseh,N8N2X2, MR. TOM WILSON  ,Extendicare (Canada) Inc.,,(519) 739-2998,NH for-profit,Home with approximately 128 beds,Urban,No,Yes,Yes,Yes,No,
3044,North East,Extendicare Timmins,62 St-Jean Avenue, ,Timmins,P4R0A6, MRS KELLY ROY  ,Extendicare Northwestern Ontario Inc. [a Subsidiary Of Extendicare (Canada) Inc.],,(705) 531-3322,NH for-profit,Home with approximately 121 beds,Urban,No,Yes,Yes,Yes,Yes,
2615,North East,Extendicare Tri-Town,143 Bruce Street,Postal Office Box 999,Temiskaming Shores,P0J1K0, MS CAROL JOHNSON  ,Extendicare Northeastern Ontario Inc. [a Subsidiary Of Extendicare (Canada) Inc.],,(705) 672-2151,NH for-profit,Home with approximately 60 beds,Rural,Yes,Yes,Yes,Yes,No,
2609,North East,Extendicare Van Daele,39 Van Daele Street, ,Sault Ste. Marie,P6B4V3, MS MARY DESCHENE  ,New Orchard Lodge Limited [a Subsidiary Of Extendicare (Canada) Inc.],,(705) 949-7934,NH for-profit,Home with approximately 100 beds,Urban,Yes,Yes,Yes,Yes,No,
2709,Champlain,Extendicare West End Villa,2179 Elmira Drive, ,Ottawa,K2C3S1, Mr Clayton Donnelly  ,New Orchard Lodge Limited [a Subsidiary Of Extendicare (Canada) Inc.],The Ottawa Hospital,(613) 829-3501,NH for-profit,Home with approximately 242 beds,Urban,No,Yes,Yes,Yes,No,"Name: Cameron Love
Position: President & CEO
1053 Carling Avenue
Ottawa ON K1Y 4E9
Phone:
E-mail: clove@toh.ca"
2604,North East,Extendicare York,333 York Street, ,Greater Sudbury,P3E5J3, MS TRACY LAMIRANDE  ,Extendicare Northwestern Ontario Inc. [a Subsidiary Of Extendicare (Canada) Inc.],,(705) 674-4221,NH for-profit,Home with approximately 288 beds,Urban,Yes,Yes,Yes,Yes,No,
2936,North East,F. J. Davey Home,733 Third Line East, ,Sault Ste. Marie,P6A7C1, Fran Conley  ,F. J. Davey Home,,(705) 942-2204,NH non-profit,Home with approximately 374 beds,Urban,No,Yes,Yes,Yes,No,
2823,Erie St. Clair,Fairfield Park,1934 Dufferin Avenue, ,Chatham-Kent,N8A4M2, MS TRACEY MAXIM  ,"Lapointe-fisher Nursing Home, Limited",,(519) 627-1663,NH for-profit,Home with approximately 99 beds,Urban,No,Yes,No,No,No,
M520,Central East,Fairhaven,881 Dutton Road, ,Peterborough,K9H7S4, MR LIONEL TOWNS  ,City And County Of Peterborough,,(705) 743-4265,MHFA,Home with approximately 256 beds,Urban,Yes,Yes,Yes,Yes,No,
M521,South East,Fairmount Home for the Aged,2069 Battersea Road,R.R. 1,Kingston,K0H1S0, MS SUSAN BRANT  ,The Corporation Of The County Of Frontenac,,(613) 546-4264,MHFA,Home with approximately 128 beds,Rural,No,Yes,No,Yes,No,
2708,North Simcoe Muskoka,Fairvern Nursing Home,14 Mill Street, ,Huntsville,P1H2A4, Ms Helen Eby  ,Huntsville District Nursing Home Inc.,,(705) 789-6011,NH non-profit,Home with approximately 76 beds,Urban,No,Yes,Yes,Yes,No,
M522,Central East,Fairview Lodge,632 Dundas Street West,Postal Office Box 300,Whitby,L1N5S3, Mr John Rankin  ,Regional Municipality Of Durham,,(905) 668-5851,MHFA,Home with approximately 198 beds,Urban,No,Yes,Yes,Yes,No,
2973,Champlain,Fairview Manor,75 Spring Street, ,Mississippi Mills,K0A1A0, Ms Mary Wilson Trider  ,Almonte General Hospital,,(613) 256-2414,NH non-profit,Home with approximately 112 beds,Rural,Yes,Yes,Yes,Yes,No,
2992,,Fairview Mennonite Home,515 Langs Drive, ,Cambridge,N3H5E4,,,,,CHFA,,Urban,,,,,,
2723,Toronto Central,Fairview Nursing Home,14 Cross Street, ,Toronto,M6J1S8, MR SAURABH BHATNAGAR  ,Fairview Nursing Home Limited,Specialty Care Inc.,(416) 534-8829,NH for-profit,Home with approximately 108 beds,Urban,No,Yes,Yes,Yes,No,
2745,Central West,Faith Manor Nursing Home,7900 Mclaughlin Road South, ,Brampton,L6Y5A7, Ms Aleksandra Grzeszczuk  ,Holland Christian Homes Inc.,,(905) 459-3333,NH non-profit,Home with approximately 120 beds,Urban,No,Yes,Yes,Yes,No,
2850,Central East,Fenelon Court,44 Wychwood Crescent, ,Kawartha Lakes,K0M1N0, MS CHRISTINE KEENAN  ,Axr Operating (National) Lp,,(705) 887-2100,NH for-profit,Home with approximately 67 beds,Rural,No,Yes,Yes,Yes,No,
2673,Erie St. Clair,Fiddick's Nursing Home,437 First Avenue,Postal Office Box 340,Petrolia,N0N1R0, MR MICHAEL FIDDICK  ,Fiddick's Nursing Home Limited,,(519) 882-0370,NH for-profit,Home with approximately 92 beds,Rural,No,Yes,Yes,Yes,No,
2906,Central East,Fieldstone Commons Care Community,1000 Ellesmere Road, ,Toronto,M1P5G2, Umang Khare  ,2063414 Ontario Limited As General Partner Of 2063414 Investment Lp,,(416) 291-0222,NH for-profit,Home with approximately 224 beds,Urban,Yes,Yes,Yes,Yes,No,
2829,North East,Finlandia Hoivakoti Nursing Home,233 4th Avenue, ,Greater Sudbury,P3B4C3, MS ANGELA PATRICK  ,Finlandia Nursing Home Limited,,(705) 524-3137,NH for-profit,Home with approximately 112 beds,Urban,Yes,Yes,Yes,Yes,No,
2707,Waterloo Wellington,Forest Heights,60 Westheights Drive, ,Kitchener,N2N2A8, MR SCOTT MUMBERSON  ,Revera Long Term Care Inc.,,(519) 576-3320,NH for-profit,Home with approximately 240 beds,Urban,Yes,Yes,Yes,Yes,No,
2834,Champlain,Forest Hill,6501 Campeau Drive, ,Ottawa,K2K3E9, Ms Susan Bell  ,0760444 B.C. Ltd. As General Partner On Behalf Of Omni Health Care Limited Partnership,,(613) 599-1991,NH for-profit,Home with approximately 160 beds,Urban,No,Yes,Yes,Yes,No,
2625,Central East,Fosterbrooke,330 King Street West, ,Toronto,L1B1G9, MS CHARLENE SMITH  ,Revera Long Term Care Inc.,,(905) 987-4702,NH for-profit,Home with approximately 88 beds,Urban,Yes,Yes,Yes,Yes,No,
2836,Toronto Central,Fountain View Care Community,1800 O'Connor Drive, ,Toronto,M4A1W7, MR GARRY BUTT  ,2063414 Ontario Limited As General Partner Of 2063414 Investment Lp,,(416) 285-2000,NH for-profit,Home with approximately 158 beds,Urban,No,Yes,Yes,Yes,No,
2570,Hamilton Niagara Haldimand Brant (Hnhb),Fox Ridge Care Community,389 West Street, ,Brantford,N3R3V9, MS TAMMY SMITH  ,2063414 Ontario Limited As General Partner Of 2063414 Investment Lp,,(519) 759-4666,NH for-profit,Home with approximately 122 beds,Urban,No,Yes,Yes,Yes,No,
2940,North East,Foyer Des Pionniers,67 15th Street,Postal Office Box 1538,Hearst,P0L1N0, MS JOELLE LACROIX  ,Foyer Hearst - Mattice - Soins De Sante,,(705) 362-7086,NH non-profit,Home with approximately 67 beds,Rural,Yes,Yes,Yes,No,No,
3022,,Foyer Richelieu Welland,655 Tanguay Avenue, ,Welland,L3B6A1,,,,,CHFA,,Urban,,,,,,
2746,Champlain,Foyer St-Viateur Nursing Home,1003 Limoges Road South, ,Limoges,K0A2M0, MR BENOIT MARLEAU  ,Genesis Gardens Inc.,,(613) 443-5751,NH for-profit,Home with approximately 57 beds,Rural,No,Yes,Yes,Yes,No,
2602,Erie St. Clair,Franklin Gardens Long Term Care Home,24 Franklin Road, ,Leamington,N8H4B7, MS STACEY VAILLANCOURT  ,"Dtoc Long Term Care Lp, By Its General Partner, Dtoc Long Term Care Mgp (A General Partnership) By Its Partners, Dtoc Long Term Care Gp Inc. And Arch Venture Holdings Inc.",Universalcare Canada Inc.,(519) 326-3289,NH for-profit,Home with approximately 120 beds,Urban,No,Yes,Yes,Yes,No,
934,South East,Friendly Manor Nursing Home,9756 County Road,"Unit 2, Postal Office Box 305",Deseronto,K0K1X0, MS DEBBIE LONG  ,Manorcare Partners Ii,Eldercare Management & Consulting Corp.,(613) 396-3438,NH for-profit,Home with approximately 60 beds,Rural,No,Yes,No,Yes,No,
2703,Central East,Frost Manor,225 Mary Street West, ,Kawartha Lakes,K9V5K3, DONEATH STEWART  ,0760444 B.C. Ltd. As General Partner On Behalf Of Omni Health Care Limited Partnership,,(705) 324-8333,NH for-profit,Home with approximately 62 beds,Urban,No,Yes,Yes,Yes,No,
M524,Toronto Central,Fudger House,439 Sherbourne Street, ,Toronto,M4X1K6, MS NANCY LEW  ,Toronto Long-term Care Homes And Services,,(416) 392-5252,MHFA,Home with approximately 250 beds,Urban,Yes,Yes,Yes,Yes,No,
2364,Hamilton Niagara Haldimand Brant (Hnhb),Garden City Manor,168 Scott Street, ,St. Catharines,L2N1H2, MR. MATHEW STICCA  ,Revera Long Term Care Inc.,,(905) 934-3321,NH for-profit,Home with approximately 200 beds,Urban,No,Yes,Yes,Yes,No,
1133,Toronto Central,Garden Court Nursing Home,1 Sand Beach Road, ,Toronto,M8V2W2, MS DEANA BENNETT  ,Shaparrall Limited,,(416) 259-6172,NH for-profit,Home with approximately 45 beds,Urban,No,Yes,Yes,No,No,
2882,Champlain,Garden Terrace,100 Aird Place, ,Ottawa,K2L4H8, MS. CHRISTINE SCHYF  ,0760444 B.C. Ltd. As General Partner On Behalf Of Omni Health Care Limited Partnership,,(613) 254-9702,NH for-profit,Home with approximately 160 beds,Urban,Yes,Yes,Yes,Yes,No,
2961,Hamilton Niagara Haldimand Brant (Hnhb),Gardenview Long Term Care Home,72 Town Centre Drive, ,Townsend,N0A1S0, MS MARA DI BIASE  ,Parkview Meadows Christian Retirement Village,,(519) 587-2448,NH non-profit,Home with approximately 64 beds,Rural,No,Yes,Yes,No,No,
M622,Champlain,Garry J. Armstrong Home,200 Island Lodge Road, ,Ottawa,K1N5M2, MS MARY ZION  ,City Of Ottawa,,(613) 789-5100,MHFA,Home with approximately 180 beds,Urban,No,Yes,Yes,Yes,No,
M526,South West,Gateway Haven Long Term Care Home,671 Frank Street,Postal Office Box 10,Wiarton,N0H2T0, Ms Megan Garland  ,Corporation Of The County Of Bruce,,(519) 538-1113,MHFA,Home with approximately 100 beds,Rural,No,Yes,Yes,No,No,
2638,South West,Georgian Heights,1115 - 10th Street East, ,Owen Sound,N4K6B1, Ms Athena Aird  ,Grosvenor Health Care Partnership (No. 3),Revera Long Term Care Inc.,(519) 371-1441,NH for-profit,Home with approximately 40 beds,Urban,No,Yes,Yes,Yes,No,
M527,North Simcoe Muskoka,Georgian Manor Home for the Aged,101 Thompsons Road, ,Penetanguishene,L9M0V3, MS SHERRY BELL  ,Corporation Of The County Of Simcoe,,(705) 549-3166,MHFA,Home with approximately 143 beds,Urban,Yes,Yes,Yes,Yes,No,
2764,North West,Geraldton District Hospital,500 Hogarth Avenue West, ,Geraldton,P0T1M0, MS LUCY BONANNO  ,Geraldton District Hospital,,(807) 854-1862,NH non-profit,Home with approximately 19 beds,Rural,No,Yes,Yes,Yes,Yes,
M528,Hamilton Niagara Haldimand Brant (Hnhb),Gilmore Lodge,50 Gilmore Road, ,Fort Erie,L2A2M1, MS BETH PLATO-GILES  ,The Regional Municipality Of Niagara,,(905) 871-6160,MHFA,Home with approximately 80 beds,Urban,No,Yes,Yes,Yes,No,
2811,Champlain,Glebe Centre,950 Bank Street, ,Ottawa,K1S5G6, MR LAWRENCE GRANT  ,The Glebe Centre Incorporated,,(613) 238-2727,NH non-profit,Home with approximately 254 beds,Urban,No,Yes,Yes,Yes,No,
981,Central East,Glen Hill Marnwood,26 Elgin Street, ,Bowmanville,L1C3C8, VANDA COZIER  ,Glen Hill Terrace Christian Homes Inc.,,(905) 623-5731,NH for-profit,Home with approximately 60 beds,Urban,No,Yes,No,Yes,No,
2605,Central East,Glen Hill Strathaven,264 King Street East, ,Bowmanville,L1C1P9, MS MICHELLE STROUD  ,Glen Hill Terrace Christian Homes Inc.,,(905) 623-2553,NH for-profit,Home with approximately 199 beds,Urban,Yes,Yes,No,Yes,No,
M529,Champlain,Glen-Stor-Dun Lodge,1900 Montreal Road, ,Cornwall,K6H7L1, MR STEVEN GOLDEN  ,The Corporation Of The City Of Cornwall,,(613) 933-3384,MHFA,Home with approximately 132 beds,Urban,Yes,Yes,Yes,Yes,No,
2705,South West,Golden Dawn Nursing Home,80 Main Street, ,Lion's Head,N0H1W0, Jeri Moon  ,Golden Dawn Senior Citizen Home,,(519) 793-3433,NH non-profit,Home with approximately 45 beds,Rural,No,Yes,Yes,No,No,
M530,North East,Golden Manor,481 Melrose Boulevard, ,Timmins,P4N5H3, MS CAROL HALT  ,Corporation Of The City Of Timmins,,(705) 360-2644,MHFA,Home with approximately 177 beds,Urban,Yes,Yes,Yes,Yes,No,
M531,Central East,Golden Plough Lodge,983 Burnham Street, ,Cobourg,K9A5J6, Ms William Detlor  ,The Corporation Of The County Of Northumberland,,(905) 372-8759,MHFA,Home with approximately 151 beds,Urban,No,Yes,Yes,Yes,No,
1033,Waterloo Wellington,Golden Years Nursing Home,704 Eagle Street North,Postal Office Box 3277,Cambridge,N3H4T3, MR PAUL REKTOR  ,Golden Years Nursing Homes (Cambridge) Inc.,,(519) 653-5493,NH for-profit,Home with approximately 90 beds,Urban,No,Yes,Yes,No,No,
2588,Central,Good Samaritan Nursing Home,481 Victoria Street East, ,New Tecumseth,L9R1J8, MS DEIRDRE BRITTON  ,Clurelea Ltd.,,(705) 435-5722,NH for-profit,Home with approximately 64 beds,Urban,No,Yes,No,Yes,No,
2942,Central West,Grace Manor,45 Kingknoll Drive, ,Brampton,L6Y5P2, Ms Jessica Radon  ,Holland Christian Homes Inc.,,(905) 463-7002,NH non-profit,Home with approximately 120 beds,Urban,No,Yes,Yes,Yes,No,
2741,Hamilton Niagara Haldimand Brant (Hnhb),Grace Villa Nursing Home,45 Lockton Crescent, ,Hamilton,L8V4V5, Ms Janette West  ,Grace Villa Limited,Apans Health Services,(905) 387-4812,NH for-profit,Home with approximately 184 beds,Urban,No,Yes,No,Yes,No,
M532,Hamilton Niagara Haldimand Brant (Hnhb),Grandview Lodge / Dunnville,657 Lock Street West, ,Dunnville,N1A1V9, MS JENNIFER JACOBS  ,The Corporation Of Haldimand County,,(905) 774-7548,MHFA,Home with approximately 128 beds,Urban,No,Yes,Yes,Yes,No,
2879,Champlain,Granite Ridge Care Community,5501 Abbott Street East, ,Ottawa,K2S2C5, MS JENNIFER POWLEY  ,Specialty Care Ottawa Inc.,,(613) 831-5701,NH for-profit,Home with approximately 224 beds,Urban,No,Yes,Yes,Yes,No,
3023,,Greenwood Court,90 Greenwood Drive, ,Stratford,N5A7W5,,,,,CHFA,,Urban,,,,,,
M606,South West,Grey Gables Home for the Aged,206 Toronto Street South, ,Markdale,N0C1H0, MS SHANNON COX  ,Corporation Of The County Of Grey,,(519) 986-3010,MHFA,Home with approximately 66 beds,Rural,No,Yes,Yes,No,No,
2950,North Simcoe Muskoka,Grove Park Home For Senior Citizens,234 Cook Street, ,Barrie,L4M4H5, MR PAUL TAYLOR  ,Grove Park Home For Senior Citizens,,(705) 726-1003,NH non-profit,Home with approximately 143 beds,Urban,No,Yes,No,Yes,No,
2646,Champlain,Groves Park Lodge,470 Raglan Street North, ,Renfrew,K7V1P5, MS DONNA PINKHAM  ,Gem Health Care Group Limited,,(613) 432-5823,NH for-profit,Home with approximately 90 beds,Urban,Yes,Yes,Yes,Yes,No,
M556,South East,H.J. McFarland Memorial Home,603 County Road 49,"R.R. 2, Hallowell Township",Prince Edward,K0K2T0, MS NATASHA WILLIAMS (Acting)  ,County Of Prince Edward,,(613) 476-2138,MHFA,Home with approximately 84 beds,Rural,No,Yes,Yes,Yes,No,
891,South East,Hallowell House,13628 Loyalist Parkway, ,Prince Edward,K0K2T0, MS LEANNE WEIR  ,Revera Long Term Care Inc.,,(613) 476-4444,NH for-profit,Home with approximately 97 beds,Rural,No,Yes,Yes,Yes,No,
2706,Hamilton Niagara Haldimand Brant (Hnhb),Hamilton Continuing Care,125 Wentworth Street South, ,Hamilton,L8N2Z1, MS KELLY YOUNGER  ,Schlegel Villages Inc.,,(905) 527-1482,NH for-profit,Home with approximately 64 beds,Urban,No,Yes,No,Yes,No,
2846,Hamilton Niagara Haldimand Brant (Hnhb),Hampton Terrace Care Centre,75 Plains Road West, ,Burlington,L7T1E8, MS KAREN VERHAEGHE  ,Unger Nursing Homes Limited,,(905) 631-0700,NH for-profit,Home with approximately 101 beds,Urban,No,Yes,Yes,Yes,No,
2770,South West,Hanover Care Centre,700 Avenue,Unit 19th,Hanover,N4N3S6, MS BRENDA WEPPLER  ,Hanover Nursing Home Limited,,(519) 364-3700,NH for-profit,Home with approximately 41 beds,Urban,No,Yes,No,No,No,
2720,Hamilton Niagara Haldimand Brant (Hnhb),Hardy Terrace,612 Mount Pleasant Road,R.R. 2,Brantford,N3T5L5, Ms Stephanie Galambos  ,"Diversicare Canada Management Services Co., Inc.",,(519) 484-2431,NH for-profit,Home with approximately 101 beds,Urban,Yes,Yes,Yes,Yes,No,
2832,Toronto Central,Harmony Hills Care Community,1800 O'Connor Drive, ,Toronto,M4A1W7, MS VILMA BUGARIN  ,2063414 Ontario Limited As General Partner Of 2063414 Investment Lp,,(416) 285-1411,NH for-profit,Home with approximately 160 beds,Urban,No,Yes,Yes,Yes,No,
2732,Central,Harold and Grace Baker Centre,1 Northwestern Avenue, ,Toronto,M6M2J7, MS CHRISTINE LANGTON  ,Harold And Grace Baker Centre,Revera Long Term Care Inc.,(416) 654-2889,NH non-profit,Home with approximately 120 beds,Urban,No,Yes,Yes,Yes,No,
M537,South East,Hastings Centennial Manor,1 Manor Lane,Postal Office Box 758,Bancroft,K0L1C0, MS KATHY PLUNKETT  ,The Corporation Of The County Of Hastings,,(613) 332-2070,MHFA,Home with approximately 110 beds,Rural,Yes,Yes,Yes,Yes,No,
M538,South East,Hastings Manor Home for the Aged,476 Dundas Street West,Postal Office Box 458,Belleville,K8N5B2, MS DEBBIE ROLLINS  ,The Corporation Of The County Of Hastings,,(613) 968-6467,MHFA,Home with approximately 253 beds,Urban,Yes,Yes,Yes,Yes,No,
2887,Central West,Hawthorn Woods Care Community,9257 Goreway Drive, ,Brampton,L6P0N5, Ms Lynne Colman  ,2063414 Ontario Limited As General Partner Of 2063414 Investment Lp,,(905) 799-7502,NH for-profit,Home with approximately 160 beds,Urban,No,Yes,Yes,Yes,No,
2586,Central,Hawthorne Place Care Centre,2045 Finch Avenue West, ,Toronto,M3N1M9, Ms Michelle Sattler  ,Rykka Care Centres Lp,,(416) 745-0811,NH for-profit,Home with approximately 269 beds,Urban,Yes,Yes,Yes,Yes,No,
2088,Champlain,Heartwood,201 - 11th Street East, ,Cornwall,K6H2Y6, MR MONTY DOMINGO  ,Heartwood Operating Inc.,,(613) 933-7420,NH for-profit,Home with approximately 118 beds,Urban,No,Yes,Yes,Yes,No,
2960,Hamilton Niagara Haldimand Brant (Hnhb),Heidehof Long Term Care Home,600 Lake Street, ,St. Catharines,L2N4J4, MRS ELENA CADDIS  ,"Benevolent Society ""heidehof"" For The Care Of The Aged",,(905) 935-3344,NH non-profit,Home with approximately 106 beds,Urban,No,Yes,No,No,No,
2728,South East,Helen Henderson Nursing Home,343 Amherst Drive, ,Amherstview,K7N1X3, MS LISA GIBSON  ,Gibson Holdings (Ontario) Ltd.,,(613) 384-4585,NH for-profit,Home with approximately 104 beds,Urban,No,Yes,Yes,Yes,No,
2798,Toronto Central,Hellenic Care for Seniors (Toronto),215 Tyrrel Avenue, ,Toronto,M6G4A9, MR NICHOLAS GEORGANTONIS  ,Hellenic Care For Seniors (Toronto) Inc.,,(416) 654-7700,NH non-profit,Home with approximately 81 beds,Urban,No,Yes,No,Yes,No,
2941,Central East,Hellenic Home - Scarborough,2411 Lawrence Avenue East, ,Toronto,M1P4X1, MS POLI PERGANTIS  ,Hellenic Home For The Aged Inc.,,(416) 654-7718,NH non-profit,Home with approximately 128 beds,Urban,Yes,Yes,Yes,Yes,No,
3045,South West,Henley Place,1961 Cedarhollow Boulevard, ,London,N5X0K2, MS KELLY KUMMERFIELD  ,Henley Place Limited,Primacare Living Solutions Inc.,(416) 243-9019,NH for-profit,Home with approximately 192 beds,Urban,No,Yes,Yes,Yes,No,
2776,Hamilton Niagara Haldimand Brant (Hnhb),Heritage Green Nursing Home,353 Isaac Brock Drive, ,Hamilton,L8J2J3, MR. SCOTT KOZACHENKO  ,Heritage Green Nursing Home,,(905) 573-7177,NH non-profit,Home with approximately 167 beds,Urban,No,Yes,Yes,Yes,No,
2898,Erie St. Clair,Heron Terrace Long Term Care Community,11550 McNorton Street, ,Windsor,N8P1T9, MS AMY SWORIK  ,S & R Nursing Homes Ltd.,,(519) 979-6730,NH for-profit,Home with approximately 140 beds,Urban,No,Yes,No,Yes,No,
3030,,Highland Wood,7199 Gelert Road,Postal Office Box 115,Haliburton,K0M1S0,,,,,CHFA,,Rural,,,,,,
2828,North Simcoe Muskoka,Hillcrest Village Care Centre,255 Russell Street, ,Midland,L4R5L6, MR JOHNATHON ENS  ,Hillcrest Village Inc.,,(705) 526-3781,NH for-profit,Home with approximately 164 beds,Urban,No,Yes,Yes,Yes,No,
3029,,Hillel Lodge (The Bess and Moe Greenberg Family),10 Nadolny Sachs Private, ,Ottawa,K2A4G7,,,,,CHFA,,Urban,,,,,,
M539,Central East,Hillsdale Estates,590 Oshawa Boulevard North, ,Oshawa,L1G5T9, MS GINA PERAGINE  ,Regional Municipality Of Durham,,(905) 579-1777,MHFA,Home with approximately 300 beds,Urban,No,Yes,Yes,Yes,No,
M630,Central East,Hillsdale Terraces,600 Oshawa Boulevard North, ,Oshawa,L1G5T9, MR JOHN RANKIN  ,Regional Municipality Of Durham,,(905) 579-3313,MHFA,Home with approximately 200 beds,Urban,No,Yes,Yes,Yes,No,
1975,South West,Hillside Manor,Highway 8,"R.R. 5, 5066 Perth East Line 34",Stratford,N5A6S6, MS TRUDY GIBSON  ,Revera Long Term Care Inc.,,(519) 393-5132,NH for-profit,Home with approximately 90 beds,Urban,No,Yes,Yes,Yes,No,
2645,South East,Hilltop Manor Nursing Home (Merrickville),1005 St Lawrence Street,Postal Office Box 430,Merrickville,K0G1N0, MR JIM PARSONS  ,Hilltop Manor Nursing Home,,(613) 269-4707,NH for-profit,Home with approximately 60 beds,Rural,No,Yes,Yes,No,No,
2923,North West,Hogarth Riverview Manor,300 Lillie Street, ,Thunder Bay,P7C4Y7, Ms Janine Black  ,St. Joseph's Care Group,Extendicare (Canada) Inc.,(807) 625-1110,NH non-profit,Home with approximately 543 beds,Urban,No,Yes,Yes,Yes,No,
2639,Central East,Hope Street Terrace,20 Hope Street South, ,Port Hope,L1A2M8, MS COLLEEN HALEY  ,"Cvh (No. 6) Lp By Its General Partners, Southbridge Health Care Gp Inc. And Southbridge Care Homes (A Limited Partnership, By Its General Partner, Southbridge Care Homes Inc.)",,(905) 885-6367,NH for-profit,Home with approximately 97 beds,Urban,Yes,Yes,No,Yes,No,
2771,North East,Hornepayne Community Hospital,278 Front Street,Postal Office Box 190,Hornepayne,P0M1Z0, MS HEATHER JAREMY-BERUBE  ,Hornepayne Community Hospital,,(807) 868-2442,NH non-profit,Home with approximately 12 beds,Rural,No,No,No,Yes,Yes,
2716,Central West,Humber Valley Terrace,95 Humber College Boulevard, ,Toronto,M9V5B5, MS MARJORIE MOSSMAN  ,Humber Valley Terrace Operating Inc.,,(416) 746-7466,NH for-profit,Home with approximately 158 beds,Urban,No,Yes,Yes,Yes,No,
M631,Erie St. Clair,Huron Lodge Long Term Care Home,1881 Cabana Road West, ,Windsor,N9G1C7, MS ALINA SIRBU  ,Corporation Of The City Of Windsor,,(519) 253-6060,MHFA,Home with approximately 224 beds,Urban,Yes,Yes,No,Yes,No,
M601,South West,Huronlea Home for the Aged,820 Turnberry Street, ,Brussels,N0G1H0, MS. ANGELA STEADMAN  ,Corporation Of The County Of Huron,,(519) 887-9267,MHFA,Home with approximately 64 beds,Rural,No,Yes,Yes,No,No,
M541,South West,Huronview Home for the Aged,R. R. 5,"Lot 50, Concession 1, Municipality of Huron East",Clinton,N0M1L0, MS CONNIE TOWNSEND  ,Corporation Of The County Of Huron,,(519) 482-3451,MHFA,Home with approximately 120 beds,Rural,No,Yes,Yes,No,No,
3050,,Hyland Crest,6 McPherson Street,Postal Office Box 30,Minden,K0M2K0,,,,,MHFA,,Rural,,,,,,
2931,Hamilton Niagara Haldimand Brant (Hnhb),Idlewyld Manor,449 Sanatorium Road, ,Hamilton,L9C2A7, Ms Bahar Karimi  ,Idlewyld Manor,,(905) 574-2000,NH non-profit,Home with approximately 192 beds,Urban,No,Yes,Yes,Yes,No,
2129,Erie St. Clair,Iler Lodge,111 Iler Avenue, ,Essex,N8M1T6, KRYSTAL LABONTE  ,Axr Operating (National) Lp,,(519) 776-9482,NH for-profit,Home with approximately 104 beds,Urban,No,Yes,Yes,Yes,No,
3034,,Ina Grafton Gage Home,40 Bell Estate Road, ,Toronto,M1L0E2,,,,,CHFA,,Urban,,,,,,
2993,,IOOF Seniors Home,10 Brooks Street, ,Barrie,L4N5L3,,,,,CHFA,,Urban,,,,,,
2724,Hamilton Niagara Haldimand Brant (Hnhb),Iroquois Lodge Nursing Home,1755 Chiefswood Road,Postal Office Box 309,Ohsweken,N0A1M0, MS KATIE GASPARELLI  ,Six Nations Of The Grand River,Extendicare (Canada) Inc.,(519) 445-2224,NH non-profit,Home with approximately 50 beds,Rural,Yes,Yes,Yes,Yes,No,
3031,,Isabel and Arthur Meighen Manor,155 Millwood Road, ,Toronto,M4S1J6,,,,,CHFA,,Urban,,,,,,
C530,Toronto Central,Ivan Franko Home (Etobicoke),767 Royal York Road, ,Toronto,M8Y2T3, MS OLHA VOVNYSH  ,Ukrainian Home For The Aged,,(416) 239-7364,CHFA,Home with approximately 85 beds,Urban,No,Yes,Yes,Yes,No,
M544,Hamilton Niagara Haldimand Brant (Hnhb),John Noble Home,97 Mount Pleasant Street, ,Brantford,N3T1T5, MS DONNA MICHAELS  ,The John Noble Home,,(519) 756-2920,MHFA,Home with approximately 156 beds,Urban,No,Yes,Yes,Yes,No,
7073,Champlain,Kemptville District Hospital,2675 Concession Road,"Postal Office Bag 2007, P.O",Kemptville,K0G1J0, MS CATHY BURKE  ,Kemptville District Hospital,,(613) 258-6133,CHFA,Home with approximately 12 beds,Rural,Yes,Yes,Yes,Yes,No,
2654,Central East,Kennedy Lodge,1400 Kennedy Road, ,Toronto,M1P4V6, GRACE CAMPO  ,Revera Long Term Care Inc.,,(416) 752-8282,NH for-profit,Home with approximately 289 beds,Urban,Yes,Yes,Yes,Yes,No,
2729,South West,Kensington Village,1340 Huron Street, ,London,N5V3R3, MS TRACIE KLISHT  ,Sharon Farms & Enterprises Limited,,(519) 455-3910,NH for-profit,Home with approximately 126 beds,Urban,Yes,Yes,Yes,Yes,No,
893,South East,Kentwood Park,2 Ontario Street, ,Prince Edward,K0K2T0, Ms Melanie Rudd  ,0760444 B.C. Ltd. As General Partner On Behalf Of Omni Health Care Limited Partnership,,(613) 476-5671,NH for-profit,Home with approximately 45 beds,Rural,No,Yes,Yes,Yes,No,
1866,Hamilton Niagara Haldimand Brant (Hnhb),Kilean Lodge,83 Main Street East, ,Grimsby,L3M1N6, MS LISA SARGENT BURTON  ,Revera Long Term Care Inc.,,(905) 945-9243,NH for-profit,Home with approximately 50 beds,Urban,No,Yes,Yes,Yes,No,
M617,Hamilton Niagara Haldimand Brant (Hnhb),The Woodlands of Sunset,920 Pelham Street, ,Welland,L3C1Y5, MS TRACEY TAIT  ,The Regional Municipality Of Niagara,,(905) 892-3845,MHFA,Home with approximately 121 beds,Urban,No,Yes,Yes,Yes,No,
3017,,Thompson House,1 Overland Drive, ,Toronto,M3C2C3,,,,,CHFA,,Urban,,,,,,
2534,Central East,Thorntonview,186 Thornton Road South, ,Oshawa,L1J5Y2, MS HEATHER POWER  ,Revera Long Term Care Inc.,,(905) 576-5181,NH for-profit,Home with approximately 154 beds,Urban,No,Yes,Yes,Yes,No,
1064,Erie St. Clair,Tilbury Manor Nursing Home,16 Fort Street,Postal Office Box 160,Chatham-Kent,N0P2L0, MS JENNIFER MIDDLETON  ,"Arch Long Term Care Lp By Its General Partner, Arch Long Term Care Mgp, By Its Partners, Arch Long Term Care Gp Inc. And Arch Capital Management Corporation",Universalcare Canada Inc.,(519) 682-0243,NH for-profit,Home with approximately 75 beds,Rural,Yes,Yes,Yes,Yes,No,
3001,,Tony Stacey Centre for Veterans' Care,59 Lawson Road, ,Toronto,M1C2J1,,,,,CHFA,,Urban,,,,,,
2747,Champlain,Township of Osgoode Care Centre,7650 Snake Island Road, ,Ottawa,K0A2P0, LORI NORRIS  ,Township Of Osgoode Care Centre,,(613) 821-1034,NH non-profit,Home with approximately 100 beds,Rural,Yes,Yes,Yes,No,No,
2337,South East,Trent Valley Lodge,195 Bay Street, ,Quinte West,K8V1H9, MR BILL WEAVER  ,Trent Valley Lodge Limited,,(613) 392-9235,NH for-profit,Home with approximately 102 beds,Urban,No,Yes,Yes,Yes,No,
2773,South West,Trillium Court,550 Philip Place, ,Kincardine,N2Z3A6, Ms Emily Kussmann  ,Revera Long Term Care Inc.,,(519) 396-4400,NH for-profit,Home with approximately 40 beds,Urban,No,Yes,Yes,Yes,No,
M585,North Simcoe Muskoka,Trillium Manor Home for the Aged,12 Grace Avenue, ,Orillia,L3V2K2, MS TANYA DEVRIES-PORTER  ,Corporation Of The County Of Simcoe,,(705) 325-1504,MHFA,Home with approximately 122 beds,Urban,Yes,Yes,Yes,Yes,No,
2790,South East,Trillium Retirement and Care Community,800 Edgar Street, ,Kingston,K7M8S4, MS ASHLEY MILLER  ,Specialty Care East Inc.,,(613) 547-7001,NH for-profit,Home with approximately 190 beds,Urban,Yes,Yes,Yes,Yes,No,
2217,Erie St. Clair,Trillium Villa Nursing Home,1221 Michigan Avenue, ,Sarnia,N7S3Y3, MS KIM VANDAM  ,S & R Nursing Homes Ltd.,,(519) 542-5529,NH for-profit,Home with approximately 152 beds,Urban,Yes,Yes,No,Yes,No,
2580,Waterloo Wellington,Trinity Village Care Centre,2727 Kingsway Drive, ,Kitchener,N2C1A7, MS DEBBY RIEPERT  ,Lutheran Homes Kitchener-waterloo,,(519) 893-6320,NH non-profit,Home with approximately 150 beds,Urban,No,Yes,Yes,Yes,No,
M586,Toronto Central,True Davidson Acres,200 Dawes Road, ,Toronto,M4C5M8, MS HAO CHAU  ,Toronto Long-term Care Homes And Services,,(416) 397-0400,MHFA,Home with approximately 187 beds,Urban,Yes,Yes,Yes,Yes,No,
2800,Champlain,Tsiionkwanonhsote,Kawehnoke Apartment Road, ,Akwesasne,K6H5R7, MR VINCENT BARRY LAZORE  ,Mohawk Council Of Akwesasne,,(613) 932-1409,NH non-profit,Home with approximately 50 beds,Urban,No,Yes,No,Yes,No,
2711,Hamilton Niagara Haldimand Brant (Hnhb),Tufford Nursing Home,312 Queenston Street, ,St. Catharines,L2P2X4, MS DONNA SPASIC  ,Unger Nursing Homes Limited,,(905) 682-0503,NH for-profit,Home with approximately 65 beds,Urban,No,Yes,No,Yes,No,
963,Central West,Tullamore Care Community,133 Kennedy Road South, ,Brampton,L6W3G3, Ms Catherine Schalk  ,Vigour Limited Partnership On Behalf Of Vigour General Partner Inc.,,(905) 459-2324,NH for-profit,Home with approximately 159 beds,Urban,Yes,Yes,Yes,Yes,No,
2889,Erie St. Clair,Twin Lakes Terrace Long Term Care Community,1310 Murphy Road, ,Sarnia,N7S6K5, MS CATHY McINTOSH  ,S & R Nursing Homes Ltd.,,(519) 542-9845,NH for-profit,Home with approximately 60 beds,Urban,No,Yes,Yes,Yes,No,
2752,Waterloo Wellington,Twin Oaks of Maryhill,1360 Maryhill Road, ,Maryhill,N0B2B0, MR RALPH LINK  ,Twin Oaks Of Maryhill Inc.,,(519) 648-2117,NH for-profit,Home with approximately 31 beds,Rural,No,Yes,No,No,No,
2656,Mississauga Halton,Tyndall Nursing Home,1060 Eglinton Avenue East, ,Mississauga,L4W1K3, MS BELISHA KE  ,Tyndall Nursing Home Limited,,(905) 624-1511,NH for-profit,Home with approximately 151 beds,Urban,No,Yes,No,Yes,No,
2809,Central,Ukrainian Canadian Care Centre,60 Richview Road, ,Toronto,M9A5E4, MS SANDY LOMASZEWYCZ  ,St. Demetrius (Ukrainian Catholic) Development Corporation,,(416) 243-7653,NH non-profit,Home with approximately 152 beds,Urban,No,Yes,Yes,Yes,No,
3018,,Union Villa,4300 Highway 7,Unit 7,Markham,L3R1L8,,,,,CHFA,,Urban,,,,,,
2951,Hamilton Niagara Haldimand Brant (Hnhb),United Mennonite Home,4024 Twenty-Third Street, ,Lincoln,L0R2C0, MR WALTER SGUAZZIN  ,United Mennonite Home For The Aged,,(905) 562-7385,NH non-profit,Home with approximately 128 beds,Rural,No,Yes,Yes,No,No,
M587,Hamilton Niagara Haldimand Brant (Hnhb),Upper Canada Lodge,272 Wellington Street,Postal Office Box 1390,Niagara-On-The-Lake,L0S1J0, MS MARGARET LAMBERT  ,The Regional Municipality Of Niagara,,(905) 468-4208,MHFA,Home with approximately 80 beds,Rural,No,Yes,Yes,Yes,No,
2675,Champlain,Valley Manor Nursing Home,88 Mintha Street,Postal Office Box 880,Barry's Bay,K0J1B0, MS TRISHA SAMMON  ,Valley Manor Inc.,,(613) 756-2643,NH non-profit,Home with approximately 90 beds,Rural,No,Yes,No,Yes,No,
2737,Hamilton Niagara Haldimand Brant (Hnhb),Valley Park Lodge,6400 Valley Way, ,Niagara Falls,L2E7E3, MS CINDY HARBRIDGE  ,955464 Ontario Limited,,(905) 358-3277,NH for-profit,Home with approximately 65 beds,Urban,Yes,Yes,Yes,Yes,No,
M628,South West,Valleyview Home,350 Burwell Road, ,St. Thomas,N5P0A3, MR MICHAEL CARROLL  ,The Corporation Of The City Of St. Thomas,,(519) 631-1030,MHFA,Home with approximately 136 beds,Urban,Yes,Yes,Yes,Yes,No,
2954,Central,Valleyview Residence,541 Finch Avenue West, ,Toronto,M2R3Y3, MS ELIZABETH BRYCE  ,Advent Health Care Corporation,,(416) 398-0555,NH non-profit,Home with approximately 174 beds,Urban,No,Yes,No,No,No,
2734,Central West,Vera M. Davis Community Care Centre,80 Allan Drive, ,Caledon,L7E1P7, MS LIEZLE TRINIDAD  ,Peel Housing Corporation,,(905) 791-7800,NH non-profit,Home with approximately 64 beds,Urban,No,Yes,No,Yes,No,
2575,Toronto Central,Vermont Square,914 Bathurst Street, ,Toronto,M5R3G5, MS ABIOLA AWOSANYA  ,Vermont Square Ltc Inc. As General Partner Of Vermont Square Ltc Limited Partnership,Responsive Health Management,(416) 533-9473,NH for-profit,Home with approximately 130 beds,Urban,Yes,Yes,Yes,Yes,No,
2806,Hamilton Niagara Haldimand Brant (Hnhb),Victoria Gardens Long Term Care,176 Victoria Avenue North, ,Hamilton,L8L5G1, MS RANKA STIPANCIC  ,Mirdem Nursing Homes Ltd.,,(905) 527-9111,NH for-profit,Home with approximately 76 beds,Urban,No,Yes,Yes,Yes,No,
M589,Central East,Victoria Manor Home for the Aged,220 Angeline Street South, ,Kawartha Lakes,K9V4R2, MS PAMELA KULAS  ,The Corporation Of The City Of Kawartha Lakes,Sienna Senior Living,(705) 324-3558,MHFA,Home with approximately 166 beds,Urban,Yes,Yes,Yes,Yes,No,
2914,North Simcoe Muskoka,Victoria Village Manor,78 Ross Street, ,Barrie,L4N1G3, MR BILL KREVER  ,Victoria Village Inc.,Specialty Care Inc.,(705) 728-3456,NH non-profit,Home with approximately 128 beds,Urban,Yes,Yes,Yes,Yes,No,
3020,,Villa Colombo Homes for the Aged,40 Playfair Avenue, ,Toronto,M6B2P9,,,,,CHFA,,Urban,,,,,,
2969,Central,Villa Colombo Seniors Centre (Vaughan),10443 Highway 27,Kleinburg,Vaughan,L0J1C0, Ms Fiorinta Flammia  ,Villa Colombo Seniors Centre (Vaughan) Inc.,Universalcare Canada Inc.,(289) 202-2222,NH non-profit,Home with approximately 160 beds,Rural,No,Yes,Yes,Yes,No,
2855,Mississauga Halton,Villa Forum,175 Forum Drive, ,Mississauga,L4Z4E5, MS CELIA LISI  ,Villa Forum,Chartwell Seniors Housing Reit,(905) 501-1443,NH non-profit,Home with approximately 160 beds,Urban,No,Yes,Yes,Yes,No,
2947,Central,Villa Leonardo Gambin,40 Friuli Court, ,Vaughan,L4L9T3, Ms Sonia Roul  ,Friuli Long Term Care,Specialty Care Inc.,(905) 856-3939,NH non-profit,Home with approximately 168 beds,Urban,Yes,Yes,Yes,Yes,No,
2818,Champlain,Villa Marconi,1026 Baseline Road, ,Ottawa,K2C0A6, MS CATHY CUCCARO  ,Villa Marconi Long Term Care Center,"Diversicare Canada Management Services Co., Inc.",(613) 727-6201,NH non-profit,Home with approximately 128 beds,Urban,No,Yes,Yes,Yes,No,
2815,North East,Villa Minto,241 Eighth Street,Postal Office Box 280,Cochrane,P0L1C0, MR PAUL CHATELAIN  ,The Lady Minto Hospital At Cochrane,,(705) 272-7200,NH non-profit,Home with approximately 33 beds,Rural,No,Yes,Yes,Yes,Yes,
2765,Erie St. Clair,Village on the Ridge,9 Myrtle Street, ,Chatham-Kent,N0P2C0, Mr Jim Eagleton  ,Revera Long Term Care Inc.,,(519) 674-5427,NH for-profit,Home with approximately 40 beds,Rural,No,Yes,Yes,Yes,No,
2659,Erie St. Clair,Vision Nursing Home,229 Wellington Street, ,Sarnia,N7T1G9, MS VIRGINNIA BRIGHT  ,Vision '74 Inc.,,(519) 336-6551,NH non-profit,Home with approximately 146 beds,Urban,Yes,Yes,Yes,Yes,No,
2803,Central East,Warkworth Place,97 Mill Street,Postal Office Box 68,Warkworth,K0K3K0, MS LISA ALLANSON  ,"Cvh (No. 6) Lp By Its General Partners, Southbridge Health Care Gp Inc. And Southbridge Care Homes (A Limited Partnership, By Its General Partner, Southbridge Care Homes Inc.)",,(705) 924-2311,NH for-profit,Home with approximately 60 beds,Rural,Yes,Yes,No,Yes,No,
2598,North East,Waters Edge Care Community,401 William Street, ,North Bay,P1A1X5, Mr. Hoss Notarkesh  ,2063414 Ontario Limited As General Partner Of 2063414 Investment Lp,,(705) 476-2602,NH for-profit,Home with approximately 148 beds,Urban,No,Yes,Yes,Yes,No,
2652,Erie St. Clair,Watford Quality Care Centre,344 Victoria Street, ,Watford,N0M2S0, MS TANYA MCGILL  ,Qcc Corp.,,(519) 876-2520,NH for-profit,Home with approximately 63 beds,Rural,Yes,Yes,Yes,Yes,No,
2959,Toronto Central,Wellesley Central Place,160 Wellesley Street East, ,Toronto,M4Y1J2, MS SUE GRAHAM-NUTTER  ,Drs. Paul And John Rekai Centre,,(416) 929-9385,NH non-profit,Home with approximately 150 beds,Urban,Yes,Yes,Yes,Yes,No,
2807,South East,Wellington House Nursing Home,990 Edward Street North,Postal Office Box 1510,Prescott,K0E1T0, MS JULIE STRESKA  ,"Arch Long Term Care Lp By Its General Partner, Arch Long Term Care Mgp, By Its Partners, Arch Long Term Care Gp Inc. And Arch Capital Management Corporation",Universalcare Canada Inc.,(613) 925-2834,NH for-profit,Home with approximately 60 beds,Rural,No,Yes,Yes,No,No,
1023,Hamilton Niagara Haldimand Brant (Hnhb),Wellington Park Care Centre,802 Hager Avenue, ,Burlington,L7S1X2, MS MARIA CLARKE  ,Rykka Care Centres Lp,,(905) 637-3481,NH for-profit,Home with approximately 132 beds,Urban,Yes,Yes,Yes,Yes,No,
M629,Waterloo Wellington,Wellington Terrace Long-Term Care Home,474 Wellington Road 18, ,Fergus,N1M0A1, MS SUE DRONIK  ,Corporation Of The County Of Wellington,,(519) 846-5359,MHFA,Home with approximately 176 beds,Urban,No,Yes,Yes,No,No,
M592,Hamilton Niagara Haldimand Brant (Hnhb),Wentworth Lodge,41 South Street West, ,Hamilton,L9H4C4, MS  KAREN ALLCROFT (A)  ,City Of Hamilton,,(905) 546-2618,MHFA,Home with approximately 160 beds,Urban,No,Yes,Yes,Yes,No,
M612,Mississauga Halton,Wesburn Manor,400 The West Mall, ,Toronto,M9C5S1, MS RAMONA NESMERAK  ,Toronto Long-term Care Homes And Services,,(416) 394-3600,MHFA,Home with approximately 192 beds,Urban,Yes,Yes,Yes,Yes,No,
997,South East,West Lake Terrace,1673 County Road 12,"R. R. 1, Unit 12",Prince Edward,K0K2T0, MS JACKIE MAXWELL  ,0760444 B.C. Ltd. As General Partner On Behalf Of Omni Health Care Limited Partnership,,(613) 393-2055,NH for-profit,Home with approximately 47 beds,Rural,No,Yes,No,Yes,No,
2870,Mississauga Halton,West Oak Village,2370 Third Line, ,Oakville,L6M4E2, MIDE SEYI-AJAYI  ,Axr Operating (National) Lp,,(905) 469-3294,NH for-profit,Home with approximately 133 beds,Urban,No,Yes,Yes,Yes,No,
1500,Hamilton Niagara Haldimand Brant (Hnhb),West Park Health Centre,103 Pelham Road, ,St. Catharines,L2S1S9, MR DAN SEMENUK  ,Cvh (No.1) Lp,Extendicare (Canada) Inc.,(905) 688-1031,NH for-profit,Home with approximately 101 beds,Urban,Yes,Yes,Yes,Yes,No,
2848,Toronto Central,West Park Long Term Care Centre,82 Buttonwood Avenue, ,Toronto,M6M2J5, MR. MATT LAMB  ,West Park Healthcare Centre,Extendicare (Canada) Inc.,(416) 614-9494,NH non-profit,Home with approximately 200 beds,Urban,Yes,Yes,Yes,Yes,No,
2623,South East,Westgate Lodge Nursing Home,37 Wilkie Street, ,Belleville,K8P4E4, MS CARRIE DELINE  ,Crown Ridge Health Care Services Inc.,,(613) 966-1323,NH for-profit,Home with approximately 88 beds,Urban,Yes,Yes,Yes,Yes,No,
2878,South West,Westmount Gardens Long Term Care Home,590 Longworth Road, ,London,N6K4X9, MS ANGIE HEINZ  ,Steeves & Rozema Enterprises Limited,,(519) 472-6424,NH for-profit,Home with approximately 160 beds,Urban,No,Yes,Yes,Yes,No,
2874,Central,Weston Terrace Care Community,2005 Lawrence Avenue West, ,Toronto,M9N3V4, MR JOHN SEEBACH  ,2063414 Ontario Limited As General Partner Of 2063414 Investment Lp,,(416) 243-8879,NH for-profit,Home with approximately 224 beds,Urban,No,Yes,Yes,Yes,No,
2663,Central West,Westside,1145 Albion Road, ,Toronto,M9V4J7, MS STEPHANIE KARAPITA  ,Revera Long Term Care Inc.,,(416) 745-4800,NH for-profit,Home with approximately 242 beds,Urban,Yes,Yes,Yes,Yes,No,
1856,North East,Wikwemikong Nursing Home,2281 Wikwemikong Way,Postal Office Box 114,Wikwemikong,P0P2J0, MS CHERYL OSAWABINE-PELTIER  ,Wikwemikong Nursing Home Limited,,(705) 859-3107,NH non-profit,Home with approximately 59 beds,Rural,Yes,Yes,No,Yes,No,
2802,South West,Wildwood Care Centre,100 Ann Street,Postal Office Box 2200,Saint Marys,N4X1A1, MR SCOTT WALSH  ,Wildwood Care Centre Inc.,,(519) 284-3628,NH for-profit,Home with approximately 60 beds,Urban,No,Yes,Yes,Yes,No,
3040,North West,Wilkes Terrace,20 Cartier Road,Unit B,Terrace Bay,P0T2W0, MR ADAM BROWN  ,North Of Superior Healthcare Group,,rue,NH non-profit,Home with approximately 22 beds,Rural,No,Yes,Yes,Yes,No,
2785,North West,William A. 'Bill' George Extended Care Facility,75 Fifth Avenue, ,Sioux Lookout,P8T1K9, MS CYNTHIA DWYER  ,Sioux Lookout Meno-ya-win Health Centre,,(807) 737-2877,NH non-profit,Home with approximately 20 beds,Urban,No,Yes,No,Yes,No,
2871,Central East,Winbourne Park,1020 Westney Road North, ,Ajax,L1T4K6, TERRY PILGRIM  ,Axr Operating (National) Lp,,(905) 426-6296,NH for-profit,Home with approximately 110 beds,Urban,Yes,Yes,Yes,Yes,No,
2945,Central West,Woodbridge Vista Care Community,5400 Steeles Avenue West,Suite eles,Vaughan,L4L9S1, MS CAROL OIS  ,2063414 Ontario Limited As General Partner Of 2063414 Investment Lp,,(905) 856-7200,NH for-profit,Home with approximately 224 beds,Urban,No,Yes,Yes,Yes,No,
2928,Central West,Woodhall Park Care Community,10260 Kennedy Road North, ,Brampton,L6Z4N7, MS DEBBIE MCINTOSH  ,Specialty Care / Woodhall Park Inc.,,(905) 495-4695,NH for-profit,Home with approximately 147 beds,Urban,No,Yes,Yes,Yes,No,
M614,South West,Woodingford Lodge - Ingersoll,325 Thames Street South, ,Ingersoll,N5C2T8, MR MARK DAGER (A)  ,County Of Oxford,,(519) 485-7053,MHFA,Home with approximately 34 beds,Urban,No,Yes,No,No,No,
M615,South West,Woodingford Lodge - Tillsonburg,52 Venison Street West, ,Tillsonburg,N4G1V1, Ms Jen Healey  ,County Of Oxford,,(519) 688-4874,MHFA,Home with approximately 34 beds,Urban,Yes,Yes,Yes,No,No,
M632,South West,Woodingford Lodge - Woodstock,300 Juliana Drive, ,Woodstock,N4V0A1, MR MARK DAGER  ,County Of Oxford,,(519) 421-5556,MHFA,Home with approximately 160 beds,Urban,Yes,Yes,No,No,No,
2743,Champlain,Woodland Villa,30 Mille Roches Road,R.R. 1,Long Sault,K0C1P0, MS JANNA SABOURIN  ,0760444 B.C. Ltd. As General Partner On Behalf Of Omni Health Care Limited Partnership,,(613) 534-2276,NH for-profit,Home with approximately 119 beds,Rural,No,Yes,Yes,Yes,No,
2821,North Simcoe Muskoka,Woods Park Care Centre,110 Lillian Crescent, ,Barrie,L4N5H7, MS CATHY COTTON  ,Woods Park Care Centre Inc.,,(705) 739-6881,NH for-profit,Home with approximately 123 beds,Urban,Yes,Yes,Yes,Yes,No,
2910,Mississauga Halton,Wyndham Manor Long Term Care Centre,291 Reynolds Street, ,Oakville,L6J3L5, MS Rachelle Cuaresma-Canlas  ,Halton Healthcare Ltc Inc.,Extendicare (Canada) Inc.,(905) 849-7766,NH non-profit,Home with approximately 128 beds,Urban,No,Yes,Yes,Yes,No,
2876,Central,Yee Hong Centre - Markham,2780 Bur Oak Avenue, ,Markham,L6B1C9, MS AMY GO  ,Yee Hong Centre For Geriatric Care,,(905) 471-3232,NH non-profit,Home with approximately 200 beds,Urban,Yes,Yes,Yes,Yes,No,
2920,Mississauga Halton,Yee Hong Centre - Mississauga,5510 Mavis Road, ,Mississauga,L5V2X5, MS CHAU NHIEU-VI  ,Yee Hong Centre For Geriatric Care,,(905) 568-0333,NH non-profit,Home with approximately 200 beds,Urban,Yes,Yes,Yes,Yes,No,
2934,Central East,Yee Hong Centre - Scarborough Finch,60 Scottfield Drive, ,Toronto,M1S5T7, MS JANET CHEE  ,Yee Hong Centre For Geriatric Care,,(416) 321-3000,NH non-profit,Home with approximately 250 beds,Urban,Yes,Yes,Yes,Yes,No,
2801,Central East,Yee Hong Centre - Scarborough McNicoll,2311 McNicoll Avenue, ,Toronto,M1V5L3, MR IVAN IP  ,Yee Hong Centre For Geriatric Care,,(416) 321-6333,NH non-profit,Home with approximately 155 beds,Urban,Yes,Yes,Yes,Yes,No,
M605,Central,York Region Maple Health Centre,10424 Keele Street, ,Vaughan,L6A2L1, MR GAUTHAM MEKALA  ,The Regional Municipality Of York,,(905) 303-0133,MHFA,Home with approximately 100 beds,Urban,Yes,Yes,Yes,Yes,No,
M534,Central,York Region Newmarket Health Centre,194 Eagle Street, ,Newmarket,L3Y1J6, MS JULIE CASAERT  ,The Regional Municipality Of York,,(905) 895-2381,MHFA,Home with approximately 132 beds,Urban,Yes,Yes,Yes,Yes,No,
2763,North East,Smooth Rock Falls Hospital,107 Kelly Road,Postal Office Box 219,Smooth Rock Falls,P0L2B0, MS SAMANTHA HIEBERT  ,Smooth Rock Falls Hospital,,(705) 338-2781,NH non-profit,Home with approximately 20 beds,Rural,No,Yes,No,Yes,Yes,
3028,,South Centennial Manor,240 Fyfe Street, ,Iroquois Falls,P0K1E0,,,,,CHFA,,Rural,,,,,,
2597,South West,Southampton Care Centre,140 Grey Street,Postal Office Box 790,Southampton,N0H2L0, MS BRENDA OHM  ,Southampton Care Centre Inc.,,(519) 797-3220,NH for-profit,Home with approximately 88 beds,Rural,Yes,Yes,Yes,Yes,No,
1159,North West,Southbridge Lakehead,135 South Vickers Street, ,Thunder Bay,P7E1J2, MS. JULIANA JASON  ,"Cvh (No. 9) Lp By Its General Partners, Southbridge Health Care Gp Inc. And Southbridge Care Homes (A Limited Partnership, By Its General Partner, Southbridge Care Homes Inc.)",Extendicare (Canada) Inc.,(807) 623-9511,NH for-profit,Home with approximately 131 beds,Urban,No,Yes,Yes,Yes,No,
2962,North West,Southbridge Pinewood,2625 Walsh Street East, ,Thunder Bay,P7E2E5, MR JONATHAN RIABOV  ,"Cvh (No. 9) Lp By Its General Partners, Southbridge Health Care Gp Inc. And Southbridge Care Homes (A Limited Partnership, By Its General Partner, Southbridge Care Homes Inc.)",,(807) 577-1127,NH for-profit,Home with approximately 128 beds,Urban,No,Yes,Yes,Yes,No,
2866,North West,Southbridge Roseview,99 Shuniah Street, ,Thunder Bay,P7A2Z2, MS JOANNE LENT  ,"Cvh (No. 9) Lp By Its General Partners, Southbridge Health Care Gp Inc. And Southbridge Care Homes (A Limited Partnership, By Its General Partner, Southbridge Care Homes Inc.)",,(807) 344-6929,NH for-profit,Home with approximately 157 beds,Urban,No,Yes,Yes,Yes,No,
2955,Central,Southlake Residential Care Village,640 Grace Street, ,Newmarket,L3Y2P6, MS ANNE DEELSTRA  ,Southlake Residential Care Village,Extendicare (Canada) Inc.,(905) 895-7661,NH non-profit,Home with approximately 224 beds,Urban,No,Yes,Yes,Yes,No,
2971,North Simcoe Muskoka,Spencer House,835 West Ridge Boulevard, ,Orillia,L3V8B3, MS TRACI VANGRINSVEN  ,Spencer House Inc.,2063414 Investment Lp,(705) 326-6609,NH non-profit,Home with approximately 160 beds,Urban,No,Yes,Yes,Yes,No,
2413,Central East,Springdale Country Manor,2698 Clifford Line,R.R. 5,Peterborough,K9J6X6, MS MAUREEN KING  ,0760444 B.C. Ltd. As General Partner On Behalf Of Omni Health Care Limited Partnership,,(705) 742-8811,NH for-profit,Home with approximately 68 beds,Urban,No,Yes,Yes,Yes,No,
M575,South West,Spruce Lodge Home for the Aged,643 West Gore Street, ,Stratford,N5A1L4, MR PETER BOLLAND  ,Spruce Lodge Home For The Aged,,(519) 271-4090,MHFA,Home with approximately 128 beds,Urban,Yes,Yes,No,Yes,No,
2946,South West,Sprucedale Care Centre,96 Kittridge Avenue East, ,Strathroy,N7G2A8, MR DARREN MICALLAF  ,Sprucedale Care Centre Inc.,C.D. Micallef Consulting Services Inc.,(519) 245-2808,NH for-profit,Home with approximately 96 beds,Urban,No,Yes,Yes,Yes,No,
2642,Champlain,The Palace,92 Centre Street, ,Alexandria,K0C1A0, MS. DIANE DUPUIS  ,"Cvh (No. 6) Lp By Its General Partners, Southbridge Health Care Gp Inc. And Southbridge Care Homes (A Limited Partnership, By Its General Partner, Southbridge Care Homes Inc.)",,(613) 525-2022,NH for-profit,Home with approximately 70 beds,Rural,No,Yes,Yes,Yes,Yes,
2926,Waterloo Wellington,St. Andrew's Terrace Long Term Care Community,255 St. Andrew's Street, ,Cambridge,N1S1P1, MS MARY ALICE BARR  ,Steeves & Rozema Enterprises Limited,,(519) 620-9512,NH for-profit,Home with approximately 128 beds,Urban,No,Yes,Yes,Yes,No,
2719,Toronto Central,St. Clair O'Connor Community Nursing Home,2701 Saint Clair Avenue East, ,Toronto,M4B3M3, VANDA COZIER  ,St. Clair O'connor Community Inc.,,(416) 757-8757,NH non-profit,Home with approximately 25 beds,Urban,No,Yes,Yes,Yes,No,
3039,North East,St. Gabriel's Villa of Sudbury,4690 Municipal Road 15, ,Greater Sudbury,P0M1L0, MR RAY INGRISELLI  ,St. Joseph's Health Centre Of Sudbury,,(705) 590-2580,NH non-profit,Home with approximately 128 beds,Rural,No,Yes,Yes,Yes,Yes,
2594,Toronto Central,St. George Care Community,225 St. George Street, ,Toronto,M5R2M2, MS NANCY DEVERA  ,2063414 Ontario Limited As General Partner Of 2063414 Investment Lp,,(416) 967-3985,NH for-profit,Home with approximately 238 beds,Urban,Yes,Yes,Yes,Yes,No,
2691,Champlain,St. Jacques Nursing Home,915 Notre Dame Street,Postal Office Box 870,Embrun,K0A1W0, MS GINETTE BEAUDIN  ,412506 Ontario Ltd.,,(613) 443-3442,NH for-profit,Home with approximately 60 beds,Rural,No,Yes,Yes,Yes,No,
2935,Central East,St. Joseph's at Fleming,659 Brealey Drive, ,Peterborough,K9K2R8, MS CAROLYN RODD  ,St Joseph's At Fleming,,(705) 743-4744,NH non-profit,Home with approximately 200 beds,Urban,No,Yes,Yes,Yes,No,
3012,,St. Joseph's Continuing Care Centre,14 York Street, ,Cornwall,K6J5T2,,,,,CHFA,,Urban,,,,,,
3011,,"St. Joseph's Health Centre, Guelph",100 Westmount Road, ,Guelph,N1H5H8,,,,,CHFA,,Urban,,,,,,
2976,Hamilton Niagara Haldimand Brant (Hnhb),St. Joseph's Lifecare Centre,99 Wayne Gretzky Parkway, ,Brantford,N3S6T6, MR BIDAR SWAMY  ,St. Joseph's Health System,,(519) 751-7096,NH non-profit,Home with approximately 205 beds,Urban,No,Yes,Yes,No,No,
2877,North East,St. Joseph's Manor,70 Spine Road, ,Elliot Lake,P5A1X2, MS CYNTHIA FARQUHAR  ,St. Joseph's General Hospital Elliot Lake,,(705) 848-1443,NH non-profit,Home with approximately 64 beds,Urban,Yes,Yes,Yes,Yes,No,
2975,Hamilton Niagara Haldimand Brant (Hnhb),"St. Joseph's Villa, Dundas",56 Governors Road, ,Hamilton,L9H5G7, Ms Jaimie Williams  ,St. Joseph's Health System,,(905) 627-9011,NH non-profit,Home with approximately 378 beds,Urban,Yes,Yes,Yes,Yes,No,
2913,North East,"St. Joseph's Villa, Sudbury",1250 South Bay Road, ,Greater Sudbury,P3E6L9, ROGER LEVEILLE  ,St. Joseph's Health Centre Of Sudbury,,(705) 674-4447,NH non-profit,Home with approximately 128 beds,Urban,No,Yes,Yes,Yes,No,
M576,South East,St. Lawrence Lodge,1803 County Road,"Postal Office Bag 1130, 2 East, Postal",Brockville,K6V5T1, MS CAROLYN ZACHARUK  ,"The Corporations Of The United Counties Of Leeds And Grenville, The City Of Brockville, The Town Of Gananoque And The Town Of Prescott",,(613) 345-0255,MHFA,Home with approximately 224 beds,Urban,No,Yes,Yes,No,No,
3015,,St. Patrick's Home,2865 Riverside Drive, ,Ottawa,K1V8N5,,,,,CHFA,,Urban,,,,,,
2927,Hamilton Niagara Haldimand Brant (Hnhb),St. Peter's Residence at Chedoke,125 Redfern Avenue, ,Hamilton,L9C7W9, MS JENNIFER BANKS  ,St. Peter's Care Centres,,(905) 383-0448,NH non-profit,Home with approximately 210 beds,Urban,No,Yes,Yes,Yes,No,
2735,North Simcoe Muskoka,Stayner Care Centre,Highway,"Unit 26, Postal Office Box 350, 244 Main Street East, 7308",Stayner,L0M1S0, Ms Carolyn McLeod  ,Stayner Care Centre Inc.,,(705) 428-3614,NH for-profit,Home with approximately 49 beds,Rural,No,Yes,No,No,No,
2863,Waterloo Wellington,Stirling Heights,200 Stirling Macgregor Drive, ,Cambridge,N1S5B7, MS CHERYL LAWRENCE-HOLMES  ,Axr Operating (National) Lp,,(519) 622-3434,NH for-profit,Home with approximately 110 beds,Urban,No,Yes,Yes,Yes,No,
2470,South East,Stirling Manor Nursing Home,218 Edward Street,Postal Office Box 220,Stirling,K0K3E0, MS CHARMAINE JORDAN  ,Manorcare Partners,Eldercare Management & Consulting Corp.,(613) 395-2596,NH for-profit,Home with approximately 75 beds,Rural,No,Yes,No,Yes,No,
2637,Champlain,Stoneridge Manor,256 High Street, ,Carleton Place,K7C1X1, MS VANESSA LABRECQUE  ,Stoneridge Manor Operating Inc.,,(613) 257-4355,NH for-profit,Home with approximately 60 beds,Urban,No,Yes,Yes,Yes,No,
1002,Waterloo Wellington,Strathcona Long Term Care,720 Princess Street, ,Mount Forest,N0G2L3, Ms Amanda Henbid  ,Sharon Farms & Enterprises Limited,,(519) 323-2140,NH for-profit,Home with approximately 88 beds,Rural,Yes,Yes,Yes,Yes,No,
M627,South West,Strathmere Lodge,599 Albert Street,Postal Office Box 5000,Strathroy,N7G3J3, MR BRENT KERWIN  ,The Corporation Of The County Of Middlesex,,(519) 245-2520,MHFA,Home with approximately 160 beds,Urban,Yes,Yes,Yes,No,No,
2666,Central East,Streamway Villa,19 James Street West, ,Cobourg,K9A2J8, MS KYLIE SZCZEBONSKI  ,0760444 B.C. Ltd. As General Partner On Behalf Of Omni Health Care Limited Partnership,,(905) 372-0163,NH for-profit,Home with approximately 59 beds,Urban,No,Yes,No,Yes,No,
2648,Mississauga Halton,Streetsville Care Community,1742 Bristol Road West, ,Mississauga,L5M1X9, Ms Jennifer Lee  ,Vigour Limited Partnership On Behalf Of Vigour General Partner Inc.,,(905) 826-3045,NH for-profit,Home with approximately 118 beds,Urban,No,Yes,Yes,Yes,No,
2573,Erie St. Clair,Sumac Lodge,1464 Blackwell Road, ,Sarnia,N7S5M4, Mr Matthew Summerfield  ,Revera Long Term Care Inc.,,(519) 542-3421,NH for-profit,Home with approximately 100 beds,Urban,No,Yes,Yes,Yes,No,
2624,South West,Summit Place,850 - 4th Street East, ,Owen Sound,N4K6A3, MS CINDIE HOLM  ,Revera Long Term Care Inc.,,(519) 376-3212,NH for-profit,Home with approximately 119 beds,Urban,No,Yes,Yes,Yes,No,
M579,Erie St. Clair,Sun Parlor Home for Senior Citizens,175 Talbot Street East, ,Leamington,N8H1L9, MS JAYNE BROOKS-KELLER  ,The Corporation Of The County Of Essex,,(519) 326-1215,MHFA,Home with approximately 206 beds,Urban,No,Yes,Yes,No,No,
1013,Central East,Sunnycrest Nursing Home,1635 Dundas Street East, ,Whitby,L1N2K9, MS CATHY MCGINN  ,Sunnycrest Nursing Homes Limited,,(905) 576-0111,NH for-profit,Home with approximately 136 beds,Urban,No,Yes,Yes,Yes,No,
M578,Waterloo Wellington,Sunnyside Home,247 Franklin Street North, ,Kitchener,N2A1Y5, MS JULIE WHEELER  ,Regional Municipality Of Waterloo,,(519) 893-8482,MHFA,Home with approximately 263 beds,Urban,Yes,Yes,Yes,Yes,No,
M581,North Simcoe Muskoka,Sunset Manor Home for Senior Citizens,49 Raglan Street, ,Collingwood,L9Y4X1, MS MARTINA WYNIA  ,Corporation Of The County Of Simcoe,,(705) 445-4499,MHFA,Home with approximately 150 beds,Urban,Yes,Yes,Yes,Yes,No,
2792,Toronto Central,Suomi-Koti Toronto Nursing Home,795 Eglinton Avenue East, ,Toronto,M4G4E4, MS KATHLEEN FRANCIS  ,Toronto Finnish-canadian Seniors Centre,,(416) 421-6719,NH non-profit,Home with approximately 34 beds,Urban,No,Yes,Yes,No,No,
M616,Central West,Tall Pines Long Term Care Centre,1001 Peter Robertson Boulevard, ,Brampton,L6R2Y3, MS JESSICA ALTENOR  ,The Regional Municipality Of Peel,,(905) 791-7800,MHFA,Home with approximately 160 beds,Urban,No,Yes,Yes,Yes,No,
M619,North East,Teck Pioneer Residence,145 Government Road East,"Unit A, Postal Bag Service 1757",Kirkland Lake,P2N3P4, Ms Tanya Schumacher  ,Corporation Of The Town Of Kirkland Lake,,(705) 567-3257,MHFA,Home with approximately 81 beds,Urban,No,Yes,Yes,Yes,No,
2742,Hamilton Niagara Haldimand Brant (Hnhb),Telfer Place,245 Grand River Street North, ,Brant,N3L3V8, MS DARLEEN BARBER  ,Revera Long Term Care Inc.,,(519) 442-4411,NH for-profit,Home with approximately 45 beds,Urban,No,Yes,Yes,Yes,No,
2698,North East,Temiskaming Lodge,100 Bruce Street,Postal Office Box 1180,Temiskaming Shores,P0J1K0, MS FRANCINE GOSSELIN  ,Jarlette Ltd.,,(705) 672-2123,NH for-profit,Home with approximately 82 beds,Rural,Yes,Yes,Yes,Yes,No,
2649,Central East,Tendercare Living Centre,1020 McNicoll Avenue, ,Toronto,M1W2J6, MR FRANCIS MARTIS  ,Tendercare Nursing Homes Limited,Extendicare (Canada) Inc.,(416) 499-2020,NH for-profit,Home with approximately 254 beds,Urban,No,Yes,No,Yes,No,
M583,South West,Terrace Lodge,475 Talbot Street East,49462 Talbot Line,Aylmer,N5H3A5, Ms Christine Leonard  ,The Corporation Of The County Of Elgin Municipal Homes,,(519) 773-9205,MHFA,Home with approximately 100 beds,Urban,Yes,Yes,Yes,No,No,
2864,North East,The Bignucolo Residence,Broomhead Road,"Postal Office Box 757, c/o Chapleau General Hospital, 6",Chapleau,P0M1K0, MS. KAREN HILL  ,Chapleau Health Services,,(705) 864-1520,NH non-profit,Home with approximately 18 beds,Rural,Yes,Yes,No,Yes,Yes,
M633,,The Elliott Long Term Care Residence,170 Metcalfe Street, ,Guelph,N1E4Y3,,,,,CHFA,,Urban,,,,,,
995,South West,The Fordwich Village Nursing Home,3063 Adelaide Street, ,Fordwich,N0G1V0, Ms Jordan Kannampuzha  ,Atk Care Inc.,,(519) 335-3168,NH for-profit,Home with approximately 33 beds,Rural,No,Yes,Yes,Yes,No,
2896,Champlain,The Four Seasons Lodge,117 Banting Drive, ,Deep River,K0J1P0, MS JANNA HOTSON  ,Deep River And District Hospital,,(613) 584-3333,NH non-profit,Home with approximately 14 beds,Rural,No,Yes,No,Yes,No,
2699,Champlain,"The Grove, Arnprior and District Nursing Home",275 Ida Street North, ,Arnprior,K7S3M7, MR ERIC HANNA  ,The Arnprior And District Memorial Hospital,,(613) 623-6547,NH non-profit,Home with approximately 61 beds,Urban,Yes,Yes,Yes,Yes,No,
2909,Hamilton Niagara Haldimand Brant (Hnhb),The Henley House,20 Ernest Street, ,St. Catharines,L2N7T2, MS ANGELA LOSTRITTO  ,Henley House Limited,,(905) 937-9703,NH for-profit,Home with approximately 160 beds,Urban,No,Yes,Yes,Yes,No,
2582,Toronto Central,The Heritage Nursing Home,1195 Queen Street East, ,Toronto,M4M1L6, MR JORDAN GLICK  ,Heritage Nursing Homes Inc.,,(416) 461-8185,NH for-profit,Home with approximately 201 beds,Urban,Yes,Yes,Yes,Yes,No,
2824,Toronto Central,The Jewish Home for the Aged,3560 Bathurst Street, ,Toronto,M6A2E1, MR SIMON AKINSULIE  ,The Jewish Home For The Aged,,(416) 785-2500,CHFA,Home with approximately 472 beds,Urban,No,Yes,Yes,Yes,No,
M625,South East,The John M. Parrott Centre,309 Bridge Street West, ,Napanee,K7R2G4, MS ANGELA MALCOLM  ,County Of Lennox And Addington,,(613) 354-3306,MHFA,Home with approximately 168 beds,Urban,Yes,Yes,Yes,Yes,No,
2852,Toronto Central,The Kensington Gardens,25 Brunswick Avenue, ,Toronto,M5S2L9, MR WILLIAM O'NEILL  ,The Kensington Health Centre,,(416) 963-9640,NH non-profit,Home with approximately 350 beds,Urban,No,Yes,Yes,Yes,No,
2093,South West,The Maples Home for Seniors,94 William Street South,Postal Office Box 400,Tavistock,N0B2R0, MS JOAN HERGOTT  ,Caressant-care Nursing And Retirement Homes Limited,,(519) 655-2344,NH for-profit,Home with approximately 43 beds,Rural,No,Yes,Yes,Yes,No,
2844,Hamilton Niagara Haldimand Brant (Hnhb),The Meadows,12 Tranquility Avenue, ,Hamilton,L9G5C2, MS TINA PADOVANI  ,Axr Operating (National) Lp,,(905) 304-1993,NH for-profit,Home with approximately 128 beds,Urban,No,Yes,Yes,Yes,No,
M515,Hamilton Niagara Haldimand Brant (Hnhb),The Meadows of Dorchester,6623 Kalar Road, ,Niagara Falls,L2H2T3, Ms. Kerry Zahra  ,The Regional Municipality Of Niagara,,(905) 357-1911,MHFA,Home with approximately 121 beds,Urban,No,Yes,Yes,Yes,No,
2621,Hamilton Niagara Haldimand Brant (Hnhb),The Norfolk Hospital Nursing Home,365 West Street, ,Simcoe,N3Y1T7, MS KELLY ISSAN  ,The Norfolk Hospital Nursing Home,,(519) 429-6973,NH non-profit,Home with approximately 80 beds,Urban,No,Yes,Yes,Yes,No,
2631,Toronto Central,The O'Neill Centre,33 Christie Street, ,Toronto,M6G3B1, MS MARGARETTE PAGLIAROLI  ,848357 Ontario Inc.,Responsive Health Management Inc.,(416) 536-1116,NH for-profit,Home with approximately 162 beds,Urban,Yes,Yes,No,Yes,No,
3025,,The Perley and Rideau Veterans' Health Centre,1750 Russell Road, ,Ottawa,K1G5Z6,,,,,CHFA,,Urban,,,,,,
M564,North Simcoe Muskoka,The Pines,98 Pine Street, ,Bracebridge,P1L1N5, Norm Barrette  ,The District Of The Municipality Of Muskoka,Extendicare (Canada) Inc.,(705) 645-4488,MHFA,Home with approximately 160 beds,Urban,No,Yes,No,Yes,No,
2873,Champlain,The Salvation Army Ottawa Grace Manor,1156 Wellington Street, ,Ottawa,K1Y2Z3, Cameron McCallum (Interim)  ,The Governing Council Of The Salvation Army In Canada,,(613) 722-8025,NH non-profit,Home with approximately 128 beds,Urban,No,Yes,Yes,Yes,No,
1101,North Simcoe Muskoka,The Villa Care Centre,689 Yonge Street, ,Midland,L4R2E1, Ms Tracy Hinks  ,Jarlette Ltd.,,(705) 526-4238,NH for-profit,Home with approximately 114 beds,Urban,Yes,Yes,No,Yes,No,
3046,Erie St. Clair,The Village at St. Clair,1800 Talbot Road, ,Windsor,N9H0E3, MRS TAMMY ROBERTS  ,Schlegel Villages Inc.,,(519) 960-1050,NH for-profit,Home with approximately 256 beds,Urban,No,No,No,No,No,
3048,Waterloo Wellington,The Village at University Gates,250 Laurelwood Drive, ,Waterloo,N2J0E2, MS CHRIS-ANNE PRESTON  ,Schlegel Villages Inc.,,(519) 904-0650,NH for-profit,Home with approximately 192 beds,Urban,No,No,No,No,No,
2681,South East,The Village Green Nursing Home,166 Pleasant Drive,Postal Office Box 94,Greater Napanee,K0K2Z0, MRS LINDA PIERCE  ,0760444 B.C. Ltd. As General Partner On Behalf Of Omni Health Care Limited Partnership,,(613) 388-2693,NH for-profit,Home with approximately 66 beds,Rural,No,Yes,Yes,Yes,No,
3037,Erie St. Clair,The Village of Aspen Lake,9855 McHugh Street, ,Tecumseh,N8P0A6, MS DANA HOULE  ,R-b-j Schlegel Holdings Inc.,,(519) 946-2055,NH for-profit,Home with approximately 192 beds,Urban,No,Yes,Yes,Yes,No,
2881,Mississauga Halton,The Village of Erin Meadows,2930 Erin Centre Boulevard, ,Mississauga,L5M7M4, M. DENIS ZAFIROVSKI  ,Schlegel Villages Inc.,,(905) 569-7155,NH for-profit,Home with approximately 180 beds,Urban,No,Yes,Yes,Yes,No,
2979,South West,The Village of Glendale Crossing,3030 Singleton Avenue, ,London,N6L0B6, MS CINDY AWDE  ,The Homewood Corporation,Oakwood Retirement Communities Inc.,(519) 668-5600,NH for-profit,Home with approximately 192 beds,Urban,No,No,No,Yes,No,
2957,Central,The Village of Humber Heights,2245 Lawrence Avenue West, ,Toronto,M9P3W3, MRS PAULINE DELL'OSO  ,Oakwood Retirement Communities Inc.,,(416) 235-0201,NH for-profit,Home with approximately 192 beds,Urban,No,Yes,No,Yes,No,
2915,Waterloo Wellington,The Village of Riverside Glen,60 Woodlawn Road East, ,Guelph,N1H8M8, MR BRYCE McBAIN  ,Schlegel Villages Inc.,,(519) 822-5272,NH for-profit,Home with approximately 192 beds,Urban,No,Yes,Yes,Yes,No,
2859,Central West,The Village of Sandalwood Park,425 Great Lakes Drive, ,Brampton,L6R2W8, MS ZOHORA MOHAMMED  ,Oakwood Retirement Communities Inc.,,(905) 458-9272,NH for-profit,Home with approximately 120 beds,Urban,No,Yes,Yes,Yes,No,
2854,Hamilton Niagara Haldimand Brant (Hnhb),The Village of Tansley Woods,4100 Upper Middle Road, ,Burlington,L7M4W8, MS RIPU PHULL  ,Oakwood Retirement Communities Inc.,,(905) 336-9904,NH for-profit,Home with approximately 144 beds,Urban,No,Yes,Yes,Yes,No,
2902,Central East,The Village of Taunton Mills,3800 Brock Street North, ,Whitby,L1R3A5, MR DANIEL KENNEDY  ,Oakwood Retirement Communities Inc.,,(905) 666-3156,NH for-profit,Home with approximately 120 beds,Urban,No,Yes,Yes,Yes,No,
2841,Hamilton Niagara Haldimand Brant (Hnhb),The Village of Wentworth Heights,1620 Upper Wentworth Street, ,Hamilton,L9B2W3, MS SARA CALDER  ,Oakwood Retirement Communities Inc.,,(905) 575-4735,NH for-profit,Home with approximately 120 beds,Urban,No,Yes,Yes,Yes,No,
2783,Waterloo Wellington,The Village of Winston Park,695 Block Line Road, ,Kitchener,N2E3K1, MR BRAD LAWRENCE  ,Winston Hall Nursing Homes Limited,,(519) 576-2430,NH for-profit,Home with approximately 95 beds,Urban,No,Yes,No,Yes,No,
2599,South West,The Village Seniors Community,101 Street,Unit 10th,Hanover,N4N1M9, MR DYLAN SUBJECT  ,Hanover Operating Inc.,,(519) 364-4320,NH for-profit,Home with approximately 70 beds,Urban,No,Yes,Yes,Yes,No,
2784,Hamilton Niagara Haldimand Brant (Hnhb),The Wellington Nursing Home,1430 Upper Wellington Street, ,Hamilton,L9A5H3, MS LISA BRENTNALL  ,Barton Retirement Inc.,Southrim Development Inc.,(905) 385-2111,NH for-profit,Home with approximately 102 beds,Urban,No,Yes,Yes,Yes,No,
7069,North East,The West Nipissing General Hospital,725 Coursol Road, ,West Nipissing,P2B2Y6, Cynthia Desormiers  ,The West Nipissing General Hospital,,(705) 753-3110,NH non-profit,Home with approximately 48 beds,Urban,No,Yes,No,Yes,No,
3021,,The Wexford,1860 Lawrence Avenue East, ,Toronto,M1R5B1,,,,,CHFA,,Urban,,,,,,
2174,Central,The Willows Estate Nursing Home,13837 Yonge Street, ,Aurora,L4G3G8, MS LINDA BURR  ,0760444 B.C. Ltd. As General Partner On Behalf Of Omni Health Care Limited Partnership,,(905) 727-0128,NH for-profit,Home with approximately 84 beds,Urban,No,Yes,No,Yes,No,
